"Name","beschaeftigte_jahr","beschaeftigte","Umsatz","Adressecheck","adressecheck","Beschreibung","Adresse.gesamt","Adresse","PLZ","Land","Ansprechperson","Telefon","Mail","Website","Seite","adressegesamtat","long","lat","geocodedadress","typ"
"3D Elements GmbH","2015","8",NA,"Sparkassenplatz 5
6020 Innsbruck, Tirol","x","3D-Fotostudios, 3D-Datenverarbeitung","Sparkassenplatz 5, 6020 Innsbruck","Sparkassenplatz 5","6020 Innsbruck","Austria | Österreich","Dominik Leitner","T +43 / 664 / 121 98 88","E service@3delements.com","www.3delements.com",15,"Sparkassenplatz 5, 6020 Innsbruck , Österreich",11.3943177,47.2661034,"sparkassenpl. 5, 6020 innsbruck, austria","Kommunikationstechnik"
"Advenica GmbH","n.v.","n.v.",NA,"Tuchlauben 7a
1010 Wien","x","Cybersicherheitslösungen für Top-Secret-Daten","Tuchlauben 7a / 5, 1010 Wien","Tuchlauben 7a / 5","1010 Wien","Austria | Österreich","Markus Gursch","T +43 / 1 / 253 00 25 270","E markus.gursch@advenica.com","www.advenica.com",16,"Tuchlauben 7a / 5, 1010 Wien , Österreich",16.3694639,48.2103809,"tuchlauben 7a, 1010 wien, austria","IT"
"Air Ambulance Technology GesmbH","2017","45",NA,"Lamprechtshausener Straße 65
5282 Ranshofen, Oberösterreich","x","schnell wechselbare Rettungsausrüstungen für Helikopter und Flugzeuge, sämtliche relevante Luftfahrzertifizierungen, EASA Supplemental Type Zertifikate","Lamprechtshausener Straße 65, 5282 Ranshofen","Lamprechtshausener Straße 655282 Ranshofen","Austria | Österreich",NA,"Nicole Kuntner-Hudson","T +43 / 7722 / 850 51","E n.kuntner@airambulancetechnology.com","www.airambulancetechnology.com",17,"Lamprechtshausener Straße 65, 5282 Ranshofen , Österreich",13.0262045,48.2253682,"lamprechtshausener str. 65, 5282 braunau am inn, austria","Andere"
"Airborne Technologies GmbH","2017","45",NA,"Gloriettegasse 1/3
1130 Wien","x","Fernerkundungssensoren, ISR-Lösungen, Geodatenverarbeitung","Gloriettegasse 1/3
1130 Wien","Viktor Lang-Straße 82700 Wiener Neustadt","Austria | Österreich",NA,NA,"T +43 / 2622 / 347 18 200","E office@airbornetechnologies.at","www.airbornetechnologies.at",18,"Gloriettegasse 1/3
1130 Wien , Österreich",16.2989071,48.1805405,"gloriettegasse 1, 1130 wien, austria","Kommunikationstechnik"
"AIT Austrian Institute of Technology","2016 (Gruppe)","969","2016 (Gruppe): 45,87 Mio. EUR","Giefinggasse 4
1210 Wien","x","CBRN-Schutz, Sicherheitssysteme, APT-Abwehr, AI, Entwicklung von AIT Cyber Range, Safety und Security Design, Post Quantum-Verschlüsselung, Blockchain","Giefinggasse 4, 1210 Wien","Giefinggasse 4","1210 Wien","Austria | Österreich","Michael Mürling","T +43 / 50550 / 4126","E michael.muerling@ait.ac.at","www.ait.ac.at",19,"Giefinggasse 4, 1210 Wien , Österreich",16.4266624,48.2693843,"giefinggasse 4, 1210 wien, austria","Kommunikationstechnik"
"AMST-Systemtechnik GmbH","2016","95",NA,"Lamprechtshausener Straße
5282 Braunau am Inn -Ranshofen, Oberösterreich","x","Luftfahrtmedizin, Ausbildung von fliegendem Personal","Lamprechtshausenerstr. 63, 5282 Ranshofen","Lamprechtshausenerstr. 63","5282 Ranshofen","Austria | Österreich","Wolfgang Lindlbauer","T +43 / 7722 / 892 - 0","E lw@amst.co.at","www.amst.co.at",20,"Lamprechtshausenerstr. 63, 5282 Ranshofen , Österreich",13.0268938,48.2255125,"lamprechtshausener str. 63, 5282 ranshofen, austria","Andere"
"AT&S Austria Technologie & Systemtechnik AG","2017 (Gruppe)","9526","2016/17 (Gruppe): 814,91 Mio. EUR","Fabriksgasse 13
8700 Leoben-Hinterberg, Steiermark","x","Herstellung von Leiterplatten und IC-Substraten","Fabriksgasse 13, 8700 Leoben","Fabriksgasse 13","8700 Leoben","Austria | Österreich","Wolfgang Brandl","T +43 / 676 / 895 578 85","E w.brandl@ats.net","www.ats.net",21,"Fabriksgasse 13, 8700 Leoben , Österreich",15.0665272,47.3583232,"fabriksgasse 13, 8700 hinterberg, austria","Andere"
"Atlas Aerospace Elektronische Geräte Vertriebs GmbH","2016","8",NA,"Muthgasse 109
1190 Wien","x","Beratung bei Wehr- und Sicherheitstechnik, Unternehmensstrategie","Muthgasse 109, 1190 Wien ","Muthgasse 109","1190 Wien ","Austria | Österreich","Philipp Muchitsch","T +43 / 1 / 320 23 88","E atlas@atlasaero.at","www.atlasaerospace.at",22,"Muthgasse 109, 1190 Wien  , Österreich",16.3695819,48.2529738,"muthgasse 109, 1190 wien, austria","Waffen & Munition"
"Atos Österreich","2016","1013","2016: 218,49 Mio. EUR","Atos IT Solutions and Services GmbH
Siemensstraße 92
1210 Wien","x","Cybersecurity, Big Data, Digital Workplace, Cloud Services, SAP, Infrastruktur- und Datenmanagement, Business-Lösungen, Unified Communication & Collaboration, Kommunikationsnetzwerke, Raumfahrttechnik","Siemensstraße 92, 1210 Wien","Siemensstraße 92","1210 Wien","Austria | Österreich",NA,"T +43 / 1 / 506 18 0","E austria.at@atos.net","www.atos.net/austria",23,"Siemensstraße 92, 1210 Wien , Österreich",16.4257686,48.266734,"siemensstraße 92, 1210 wien, austria","IT"
"ATS Gebäude- und Sicherheitstechnik GmbH","2016","6",NA,"Heiligenkreuzer Straße 48
2392 Sulz im Wienerwald, Niederösterreich","x","Sicherheits- und Gebäudesysteme: Zutrittskontrolle, Zeiterfassung, Einbruchs- und Feueralarm, Licht & Energiemanagement, Interkom & Sound over IP Systeme","Heiligenkreuzer Straße 48
2392 Sulz im Wienerwald, Niederösterreich","Gruberau 482392 Wienerwald","Austria | Österreich","Ursula Brichacek",NA,"T +43 / 2238 / 700 05 - 0","E FJB@ats.co.at","www.ats.co.at",24,"Heiligenkreuzer Straße 48
2392 Sulz im Wienerwald, Niederösterreich , Österreich",16.097114,48.1207232,"heiligenkreuzer str. 48, 2392 gruberau, austria","Andere"
"AUSTRIALPIN GMBH","2016","12",NA,"Industriezone C 2a
6166 Fulpmes, Tirol","x","Tactical & Safety, Flugsport und Bergsport","Industriezone C 2a, 6166 Fulpmes","Industriezone C 2a","6166 Fulpmes","Austria | Österreich","Robert Span","T +43 / 5225 / 652 48","E robert.span@austrialpin.at","www.austrialpin.at",25,"Industriezone C 2a, 6166 Fulpmes , Österreich",11.3483091,47.1521124,"fulpmes, austria","Personal-Ausrüstung"
"Austro Engine GmbH","2018","80","2015/16: 16,75 Mio. EUR","Rudolf Diesel-Straße 11
2700 Wiener Neustadt, Niederösterreich","x","Kolben- und Wankelmotoren für Luftfahrt und unbemannte Flugobjekte, Elektronik, Elektrik","Rudolf Diesel-Straße 11, 2700 Wiener Neustadt","Rudolf Diesel-Straße 11","2700 Wiener Neustadt","Austria | Österreich","Mario Spiegel","T +43 / 2622 / 230 00","E m.spiegel@austroengine.at","www.austroengine.at",26,"Rudolf Diesel-Straße 11, 2700 Wiener Neustadt , Österreich",16.2524569,47.841164,"rudolf-diesel-straße 11, 2700 wiener neustadt, austria","Andere"
"AVL List GmbH","2016 (Gruppe)","9115","2016 (Gruppe): 1.385,09 Mio. EU","Hans-List-Platz 1
8020 Graz, Steiermark","x","Entwicklung, Simulation und Prüftechnik von Antriebssystemen für PKW, LKW, Großmotoren und Spezialanwendungen","Hans-List-Platz 1, 8020 Graz","Hans-List-Platz 1","8020 Graz","Austria | Österreich",NA,"T +43 / 316 / 787 - 0","E info@avl.com","www.avl.com",27,"Hans-List-Platz 1, 8020 Graz , Österreich",15.425109,47.0778748,"hans-list-platz 1, 8020 graz, austria","Fahrzeuge & Zubehör"
"BDP Ballistic & Defence Products ","2015","2",NA,"Karlauergürtel 29 - 31
8020 Graz, Steiermark","x","Beratung, Vermittlung und Handel mit Defence-, Dual Use- und Sicherheitsprodukten, v.a. Instandhaltung, Feldlager, Katastrophenschutz","Karlauergürtel 29-31, 8020 Graz","Karlauergürtel 29-31","8020 Graz","Austria | Österreich","Kurt Wiederwohl","T +43 / 316 / 714 591","E k.wiederwohl@bdp.at","www.bdp.at",28,"Karlauergürtel 29-31, 8020 Graz , Österreich",15.434229,47.0577884,"karlauergürtel 29, 8020 graz, austria","Waffen & Munition"
"Besurence GmbH","0","n.v.",NA,"Hietzinger Hauptstraße 46
1130 Wien","x","Schnelldiagnose-Kits (Syphilis, Dengue, TB, Fruchtbarkeitsprobleme)","Hietzinger Hauptstraße 46, 1130 Wien","Hietzinger Hauptstraße 46","1130 Wien","Austria | Österreich","Katrin Kampschulte","T +43 / 1 / 503 59 79","E k.kampschulte@besurence.com","www.besurence.com",29,"Hietzinger Hauptstraße 46, 1130 Wien , Österreich",16.2883923,48.1872677,"hietzinger hauptstraße 46, 1130 wien, austria","Andere"
"Billitz GmbH","2016","12",NA,"Hauswiesenweg 3
2463 Gallbrunn, Niederösterreich","x","Transporten, Zoll und Lagerung von explosiven und sensiblen Gütern","Hauswiesenweg, 32463 Gallbrunn","Hauswiesenweg","32463 Gallbrunn","Austria | Österreich","Michael Hofbauer","T +43 / 2230 / 711 66 - 0","E sales@billitz.com","www.billitz.com",30,"Hauswiesenweg, 32463 Gallbrunn , Österreich",16.6419981,48.0513851,"hauswiesenweg, 2463, austria","Andere"
"bit media e-solutions GmbH","2017","49",NA,"Kärntner Straße 337
8054 Graz, Steiermark","x","e-Learning-Systeme","Kärntner Strasse 337, 8054 Graz","Kärntner Strasse 337","8054 Graz","Austria | Österreich","Stefan Düss","T +43 / 664 / 619 97 05","E stefan.duess@bitmedia.at","www.bitmedia.at",31,"Kärntner Strasse 337, 8054 Graz , Österreich",15.4049969,47.0294469,"kärntner str. 337, 8054 graz, austria","Andere"
"Bowas-Induplan Chemie Ges.m.b.H.","2016","29","2014: 5,29 Mio. EUR","Sterneckstr. 55
5020 Salzburg, Salzburg","x","Planung und Montage von (Hilfs-)anlagen für Explosivstoffindustrie, Zerlegung überlagerter Munition, Säuberung durch Sprengstoff verunreinigter Böden","Sterneckstraße 55, 5020 Salzburg","Sterneckstraße 55","5020 Salzburg","Austria | Österreich","Gaby Brühl","T +43 / 662 / 877 671 23","E g.bruehl@bowas.com","www.bowas-induplan.com",32,"Sterneckstraße 55, 5020 Salzburg , Österreich",13.0634861,47.810089,"sterneckstraße 55, 5020 salzburg, austria","Andere"
"Carbon-solutions Hintsteiner GmbH","2017","19",NA,"Kirchengasse 1
8644 Kindberg, Steiermark","x","Carbon-Faser Technologie in Prototypen- und Kleinserienfertigung","Kirchengasse 1, 8644 Mürzhofen","Kirchengasse 1","8644 Mürzhofen","Austria | Österreich","Martin Hintsteiner","T +43 / 3864 / 23 36","E office@hintsteiner.at","www.hintsteiner-group.com",33,"Kirchengasse 1, 8644 Mürzhofen , Österreich",15.3955771,47.4848094,"kirchengasse 1, 8644 mürzhofen, austria","Waffen & Munition"
"CGS Trading Import-Export GmbH","2015","2",NA,"Lichtenauergasse 7/12
1020 Wien","x","gepanzerte Fahrzeuge, ABC-Schutz, Isolations- und Luftfiltersysteme, mobile Krankenhäuser und Photovoltaik, Dual Use Goods","Lichtenauergasse 7/12, 1020 Wien","Lichtenauergasse 7/12","1020 Wien","Austria | Österreich","Christine Grassl","T +43 / 1 / 581 05 06 - 30","E grassl@cgs-trading.com","www.cgs-trading.com",34,"Lichtenauergasse 7/12, 1020 Wien , Österreich",16.3892342,48.2146418,"lichtenauergasse 7, 1020 wien, austria","Fahrzeuge & Zubehör"
"charismaTec OG","n.v.","n.v.",NA,"Sandgasse 25a/5
8010 Graz, Steiermark","x","Dokumentenprüfung","Sandgasse 25a/5, 8010 Graz","Sandgasse 25a/5","8010 Graz","Austria | Österreich","Sandra Slavinec","T +43 / 664 / 881 869 90","E office@charismatec.at","www.doculuslumus.com | www.charismatec.at",35,"Sandgasse 25a/5, 8010 Graz , Österreich",15.4568061,47.0590531,"sandgasse 25a, 8010 graz, austria","Andere"
"CHV Container Handels- und Vermietungsgesellschaft m.b.H.","2017","24",NA,"Lastenstr. 30
1230 Wien","x","Herstellung von Containern","Lastenstrasse 30, 1230 Wien","Lastenstrasse 30","1230 Wien","Austria | Österreich","Wolfgang Weinrich | Thomas Dalla Veccia","T +43 / 1 / 865 20 50 - 0","E office@chv.at","www.chv.at",36,"Lastenstrasse 30, 1230 Wien , Österreich",16.28721,48.1423959,"lastenstraße 30, 1230 wien, austria","Andere"
"cogvis software und consulting GmbH","2016","11",NA,"Wiedner Hauptstraße 17/3a
1040 Wien","x","Auswertung von 3D-Daten zur Sturzerkennung: Computer Vision, Machine/Deep Learning, Artificial Intelligence und 3D-Daten-Verarbeitung","Wiedner Hauptstraße 17/1/3a, 1040 Wien","Wiedner Hauptstraße 17/1/3a","1040 Wien","Austria | Österreich","Rainer Planinc","T +43 / 1 / 236 058 - 0","E office@cogvis.at","cogvis.at",37,"Wiedner Hauptstraße 17/1/3a, 1040 Wien , Österreich",16.3678223,48.196799,"wiedner hauptstraße 17, 1040 wien, austria","Andere"
"Commend International GmbH","2016","166",NA,"Saalachstraße 51
5020 Salzburg, Salzburg","x","ausfallssicheren Kommunikations- sowie Notfall-Gefahrenreaktions-Systemen","Saalachstrasse 51, 5020 Salzburg","Saalachstrasse 51","5020 Salzburg","Austria | Österreich",NA,"T +43 / 662 / 856 225","E office@commend.com","www.commend.com",38,"Saalachstrasse 51, 5020 Salzburg , Österreich",12.9930623,47.8306203,"saalachstraße 51, 5020 salzburg, austria","Kommunikationstechnik"
"CyberTrap Software GmbH","2015","5",NA,"Komarigasse 14/1
2700 Wiener Neustadt, Niederösterreich","x","Sicherheitssoftware, die mit Täuschungstechnologie Täter überführt","Komarigasse 14, 2700 Wr. Neustadt","Komarigasse 14","2700 Wr. Neustadt","Austria | Österreich","Jack Wagner","T +43 / 1 / 890 47 00","E office@cybertrap.com","www.cybertrap.com",39,"Komarigasse 14, 2700 Wr. Neustadt , Österreich",16.2523038,47.8146691,"komarigasse 14, 2700 wiener neustadt, austria","IT"
"Desoma GmbH","2017","8",NA,"Jakominiplatz 12
8010 Graz, Steiermark","x","Datenprofiling zur Vorbeugung von Cyberkriminaltiät","Jakominiplatz 12, 8010 Graz","Jakominiplatz 12","8010 Graz","Austria | Österreich","Johann Preinsberger | Adolf Schmidthuber","T +43 / 316 / 810 - 330","E info4ip@desoma.org","www.desoma.org",40,"Jakominiplatz 12, 8010 Graz , Österreich",15.4442351,47.0674808,"jakominipl. 12, 8010 graz, austria","Kommunikationstechnik"
"Diamond Aircraft Industries GmbH","2016","426","2015/16: 86,74 Mio. EUR","Nikolaus August Otto-Straße 5
2700 Wiener Neustadt, Niederösterreich","x","Fernerkundungsplattformen","Nikolaus August Otto-Straße 5
2700 Wiener Neustadt, Niederösterreich","N.A. Otto Str. 5","2700 Wiener Neustadt","Austria | Österreich",NA,"T +43 / 2622 / 267 00 – 1317","E sales@diamond-air.at","www.diamond-air.at",41,"Nikolaus August Otto-Straße 5
2700 Wiener Neustadt, Niederösterreich , Österreich",16.2517868,47.8428474,"nikolaus-august-otto-straße 5, 2700 wiener neustadt, austria","Fahrzeuge & Zubehör"
"DIPROmed GmbH","2015","4",NA,"Eisgrubengasse 2-6
2334 Vösendorf, Niederösterreich","x","medizinische und forensische Schnelltests für Drogen","Eisgrubengasse 2-, 62334 Vösendorf","Eisgrubengasse 2-","62334 Vösendorf",NA,"Alexander Otto","T +43 / 2236 / 374 019","E sales@dipromed.at","www.dipromed.at",42,"Eisgrubengasse 2-, 62334 Vösendorf , Österreich",16.3146475,48.1100026,"eisgrubengasse 2, 2334 vösendorf, austria","Andere"
"Dlouhy GmbH","2016","103","2017: 25,23 Mio. EUR","Königstetter Straße 163 A
3430 Tulln, Niederösterreich","x","Spezialfahrzeuge im Rettungswesen","Königstetter Straße 163a, 3430 Tulln","Königstetter Straße 163a","3430 Tulln","Austria | Österreich","Martin Dlouhy","T +43 / 2272 / 631 00","E tulln@dlouhy.at","www.dlouhy.at",43,"Königstetter Straße 163a, 3430 Tulln , Österreich",16.0791409,48.3213979,"königstetter str. 163a, 3430 tulln an der donau, austria","Fahrzeuge & Zubehör"
"dormakaba Austria GmbH","2017","562","2016/17: 100,50 Mio. EUR","Ulrich-Bremi-Straße 2
3130 Herzogenburg, Niederösterreich","x","Gebäudezutrittssicherung und Betriebsdatenerfassung","Ulrich-Bremi-Straße 2, 3130 Herzogenburg","Ulrich-Bremi-Straße 2","3130 Herzogenburg","Austria | Österreich",NA,"T +43 / 2782 / 808 - 0","E office.at@dormakaba.com","www.dormakaba.at",44,"Ulrich-Bremi-Straße 2, 3130 Herzogenburg , Österreich",15.7088364,48.2824812,"ulrich-bremi strasse 2, 3130 herzogenburg, austria","Andere"
"Edelweiss Industries / Edelweiss Adventure GmbH",NA,"n.v.",NA,"Blumauerstraße 200A
2601 Sollenau, Niederösterreich","x","(Handfeuer-)Waffen, Munition, Infanterieausrüstung und ballistischen Systeme","Blumauerstraße 200A, 2601 Sollenau","Blumauerstraße 200A","2601 Sollenau","Austria | Österreich","Andreas Steindl","T +43 / 2628 / 483 49","E office@edelweiss.world","www.edelweiss.world",45,"Blumauerstraße 200A, 2601 Sollenau , Österreich",16.2805866,47.9067944,"blumauerstraße 200, 2601 sollenau, austria","Waffen & Munition"
"ELMA-TECH modern technologies",NA,"n.v.",NA,"Dipl.-Ing. Herbert Steinleitner - ELMA-TECH modern technologies
Pummerinplatz 1
4490 St. Florian","x","Gefahrenbekämpfung aus Distanz: künstliche Lawinenauslösung, Flächenbrand-, Ölkatastrophen- und Insektenbekämpfung","Pummerinplatz 1, 4490 St. Florian","Pummerinplatz 1","4490 St. Florian","Austria | Österreich","Herbert Steinleitner","T +43 / 7224 / 412 65","E office@elma-tech.com","www.elma-tech.com",46,"Pummerinplatz 1, 4490 St. Florian , Österreich",14.3963255,48.2099731,"pummerinpl. 1, 4490 st. florian, austria","Personal-Ausrüstung"
"EMPL Fahrzeugwerk Ges.m.b.H.","2016 (Gruppe)","464","2016 (Gruppe): 163,80 Mio. EUR","Gewerbestraße 12
6272 Kaltenbach im Zillertal, Tirol","x","LKW-Aufbauten für militärische Einsätze","Gewerbestraße 12, 6272 Kaltenbach","Gewerbestraße 12","6272 Kaltenbach","Austria | Österreich",NA,"T +43 / 5283 / 501 - 0","E info@empl.at","www.empl.at",47,"Gewerbestraße 12, 6272 Kaltenbach , Österreich",11.877688,47.2893026,"gewerbestraße 12, 6272 kaltenbach, austria","Fahrzeuge & Zubehör"
"ESL Advanced Information Technology ","2017","42","2016: 7,86 Mio. EUR","Obachgasse 26
1220 Wien","x","Führungsinformationssystemen wie fernbedienbare Waffenstationen, Granatwerfer, Beobachtungsfahrzeuge und C4I Systeme","Obachgasse 26, 1220 Wien","Obachgasse 26","1220 Wien","Austria | Österreich",NA,"T +43 / 1 / 256 24 53 - 0","E office@eslait.at","www.eslait.at",48,"Obachgasse 26, 1220 Wien , Österreich",16.4625505,48.2582287,"obachgasse 26, 1220 wien, austria","Waffen & Munition"
"eurofunk KAPPACHER GmbH","2017","378","2016/17: 44,86 Mio. EUR","Eurofunkstraße 1-8
5600 St.Johann im Pongau, Salzburg","x","Leitstellen und Notrufzentralen","eurofunk-Straße 1-8, 5600 St. Johann im Pongau","eurofunk-Straße 1-8","5600 St. Johann im Pongau","Austria | Österreich",NA,"T +43 57 112 - 0","E office@eurofunk.com","www.eurofunk.com",49,"eurofunk-Straße 1-8, 5600 St. Johann im Pongau , Österreich",13.2008334,47.343528,"eurofunkstraße 1/8, 5600 plankenau, austria","Kommunikationstechnik"
"EVVA Sicherheitstechnologie GmbH","2016 (Gruppe)","716","2016 (Gruppe): 74,16 Mio. EUR","Wienerbergstraße 59-65
1120 Wien","x","mechanische und elektronische Schließsysteme","Wienerbergstraße 59-65, 1120 Wien","Wienerbergstraße 59-65","1120 Wien","Austria | Österreich",NA,"T +43 / 1 / 811 65 - 0","E office-wien@evva.com","www.evva.com",50,"Wienerbergstraße 59-65, 1120 Wien , Österreich",16.3286426,48.1718842,"wienerbergstraße 59-65, 1120 wien, austria","Andere"
"EYE.AERO gmbh","2016","1",NA,"Neubauring 29
4432 Ernsthofen (NÖ), Niederösterreich","x","taktische Drohnen mit Bodenstationen (PCS)","Neubauring 29, 4432 Ernsthofen","Neubauring 29","4432 Ernsthofen","Austria | Österreich","Gregor Schnoell","T +43 / 7435 / 202 26","E office@eye.aero","www.eye.aero",51,"Neubauring 29, 4432 Ernsthofen , Österreich",14.4805026,48.1315557,"neubauring 29, 4432 rubring, austria","Andere"
"FinPin Technologies GmbH","2016","0",NA,"Wienerbergstraße 11/12a
1100 Wien","x","MultiFaktorAuthentifizierung (FMA) basierend auf biometrischen Daten","Wienerbergstraße 11/12a, 1100 Wien","Wienerbergstraße 11/12a","1100 Wien","Austria | Österreich",NA,"T +43 / 670 / 204 42 72","E office@finpintech.com","www.seza.me",52,"Wienerbergstraße 11/12a, 1100 Wien , Österreich",16.3469547,48.1685719,"wienerbergstraße 11, 1100 wien, austria","IT"
"fireKRAFT AUSTRIA",NA,"n.v.",NA,NA,"x","Ausrüstung für Luft-, Land- und maritime Spezialeinsatzkräfte","Industriestraße 5, 4061 Pasching","Industriestraße 5","4061 Pasching","Austria | Österreich","Thomas Kraft","T +43 / 7229 / 662 40 - 0","E office@firekraft.at","www.firekraft.at",53,"Industriestraße 5, 4061 Pasching , Österreich",14.232985,48.245667,"industriestraße 5, 4061, austria","Personal-Ausrüstung"
"Flex Althofen","2017","609","2016/17: 162,61 Mio. EUR","Friesacher Straße 3
9330 Althofen, Kärnten","x","Design-, Produktions- und Logistiklösungen","Friesacher Straße 3, 9330 Althofen","Friesacher Straße 3","9330 Althofen","Austria | Österreich","Günther Steger","T +43 / 4262 / 26 44 - 1611","E guenther.steger@flex.com","www.flex.com",54,"Friesacher Straße 3, 9330 Althofen , Österreich",14.4645362,46.8747679,"friesacher str. 3, 9330 althofen, austria","Kommunikationstechnik"
"fragmentiX, a ProCom-Strasser GmbH Venture",NA,"n.v.",NA,NA,"x","verschlüsselte Datenspeicher","P.O. Box 9, 3400 Klosterneuburg","P.O. Box 9","3400 Klosterneuburg","Austria | Österreich","Werner Strasser ","T +43 / 664 / 325 88 96","E ws@fragmentix.com","www.fragmentix.com",55,"P.O. Box 9, 3400 Klosterneuburg , Österreich",16.2984848,48.2925299,"3400, austria","IT"
"Franz Achleitner GMBH","2021","16","2016/17: 47,13 Mio. EUR","Franz Achleitner-Fahrzeugbau und Reifenzentrum GMBH
Innsbruckerstraße 94
6300 Wörgl, Tirol","x","(geschützte) Logistik-, Sicherheits- und Sonderfahrzeuge","Innsbrucker Straße 94, 6300 Wörgl","Innsbrucker Straße 94","6300 Wörgl","Austria | Österreich","Franz Achleitner","T +43 / 5337 / 66 600","E office@achleitner.com","www.achleitner.com",56,"Innsbrucker Straße 94, 6300 Wörgl , Österreich",12.0491804,47.4794569,"innsbrucker str. 94, 6300 wörgl, austria","Fahrzeuge & Zubehör"
"Frequentis AG","2017 (Gruppe)","1697","2017: 198,05 Mio. EUR","Innovationsstraße 1
1100 Wien","x","Kommunikations- und Informationssystemen für Leitzentralen für Air Traffic Management (Flugsicherung, AIM, Luftverteidigung) und Public Safety & Transport (Polizei, Feuerwehr, Rettungsdienste, Schifffahrt, Bahn)","Innovationsstraße 1, 1100 Wien","Innovationsstraße 1","1100 Wien","Austria | Österreich","T +43 / 1 / 811 50 - 0",NA,"E marketing@frequentis.com","www.frequentis.com",57,"Innovationsstraße 1, 1100 Wien , Österreich",16.3338121,48.1640871,"innovationsstraße 1, 1100 wien, austria","Kommunikationstechnik"
"FUXS GmbH","2015","2",NA,"Exerzierplatzstraße 85
8051 Graz, Steiermark","x","Explosionsschutz bei brennbaren und explosiven Treibstoffen und Gasen","Exerzierplatzstrasse 85, 8051 Graz","Exerzierplatzstrasse 85","8051 Graz","Austria | Österreich","Franz Stuhlbacher","T +43 / 316 / 698 778 - 10","E fs@fuxs-company.com","www.fuxs-company.com",58,"Exerzierplatzstrasse 85, 8051 Graz , Österreich",15.4107934,47.0993317,"exerzierplatzstraße 85, 8051 graz, austria","Fahrzeuge & Zubehör"
"GD European Land Systems - Steyr GmbH","2017","120","2016: 18,99 Mio. EUR","Bleibtreustraße 2
1110 Wien","x","Radfahrzeuge, Kettenfahrzeuge, amphibische Fahrzeuge und andere Kampfsysteme sowie Artillerie und Munition","Bleibtreustraße 2, 1110 Wien","Bleibtreustraße 2","1110 Wien","Austria | Österreich","Michael Mock","T +43 / 1 / 760 64 - 0","E michael.mock@gdels.com","www.gedels.com",59,"Bleibtreustraße 2, 1110 Wien , Österreich",16.44869,48.1775,"bleibtreustraße 2, 1110 wien, austria","Waffen & Munition"
"GLOCK Ges.m.b.H.","2016 (Gruppe)","1557","2016 (Gruppe): 709,49 Mio.","Gaston-Glock-Park1, 9170 Ferlach","x","Faustfeuerwaffentechnik","Gaston Glock-Platz 1","Gaston-Glock-Park 1","9170 Ferlach","Austria | Österreich",NA,"T +43 / 2247 / 903 00","E impressum@glock.at","www.glock.com",60,"Gaston Glock-Platz 1, 2232 Deutsch-Wagram , Österreich",14.30253,46.52487,"gaston glock-platz 1, 2232 deutsch-wagram, austria","Waffen & Munition"
"GOETZLOFF Gesellschaft mbH","2016","9",NA,"Thannstraße 6
4490 St. Florian bei Linz, Oberösterreich","x","impermeabler ABC Schutz (Anzüge, Overalls, Verwundeten- und Transportsäcke, Abdeckungen für Waffensysteme, Mobile Transportsysteme für infektiöse Patienten)","Thannstrasse 6, 4490 St.Florian","Thannstrasse 6","4490 St.Florian","Austria | Österreich","Joachim H. Goetzloff","T +43 / 732 / 384 027","E office@goetzloff.at","www.goetzloff.at",61,"Thannstrasse 6, 4490 St.Florian , Österreich",14.379309,48.2047142,"thann str. 6, 4490 st. florian, austria","Personal-Ausrüstung"
"Goldeck Textil GmbH - CARINTHIA","2016","51","2016: 35,89 Mio. EUR","GOLDECK TEXTIL GMBH
Seebacherstraße 11-13
9871 Seeboden, Kärnten","x","Schlafsäcke und Kälteschutzbekleidung","Seebacherstraße 11-, 139871 Seeboden","Seebacherstraße 11-","139871 Seeboden","Austria | Österreich",NA,"T +43 / 4762 / 5101 - 0","E office@carinthia.eu","www.carinthia.eu",62,"Seebacherstraße 11-, 139871 Seeboden , Österreich",13.49718,46.81843,"seebacherstrasse 11, 8052 zürich, switzerland","Personal-Ausrüstung"
"HAST GmbH","2016","0",NA,"HAST Heeresausrüstung & Sicherheitstechnik GmbH
Furt 43
4754 Andrichsfurt, Oberösterreich","x","Plattform für Behördengeschäfte mit dem Innen- und Verteidigungsministerium","Furt 43, 4754 Andrichsfurt","Furt 43","4754 Andrichsfurt","Austria | Österreich","Gottfried Koger","T +43 / 699 / 158 880 39","E g.koger@hast.cc","www.hast.cc",63,"Furt 43, 4754 Andrichsfurt , Österreich",13.5174359,48.2543326,"furt 43, 4754 andrichsfurt, austria","Waffen & Munition"
"HICO Group GmbH","2017","2",NA,"Salesianergasse 4 Top 4
1030 Wien","x","IT-Lösungen, IPS-Dienstleistungen","Salesianergasse 4 / Top 4, 1030 Wien","Salesianergasse 4 / Top 4","1030 Wien","Austria | Österreich",NA,"T +43 / 1 / 890 7918 - 0","E sales@HICO.com","www.HICO.com",64,"Salesianergasse 4 / Top 4, 1030 Wien , Österreich",16.3807009,48.2007558,"salesianergasse 4/top 4, 1030 wien, austria","Andere"
"HIRTENBERGER DEFENCE EUROPE GmbH","2018","90",NA,"Leobersdorfer Straße 31-33
2552 Hirtenberg, Niederösterreich","x","Mörsermunition und Waffensysteme, sowie optische Instrumente und Feuerleitsysteme","Leobersdorferstraße 31-33, 2256 Hirtenberg","Leobersdorferstraße 31-33","2256 Hirtenberg","Austria | Österreich","Roland Pittracher","T +43 / 2256 / 811 84 - 0",NA,"hds.hirtenberger.com",65,"Leobersdorferstraße 31-33, 2256 Hirtenberg , Österreich",16.2473385,47.9412614,"leobersdorferstraße 31, 2525, austria","Waffen & Munition"
"Hitzinger GmbH","2017","269","2016/17: 51,15 Mio. EUR","Helmholtzstraße 56
4020 Linz, Oberösterreich","x","Generatoren, Aggregaten, Umformern, USV-Anlagen und Flugzeug-Bodenstromversorgung","Helmholtzstraße 56, 4021 Linz","Helmholtzstraße 56","4021 Linz","Austria | Österreich",NA,"T +43 / 732 / 381 681 – 0","E office@hitzinger.at","www.hitzinger.at",66,"Helmholtzstraße 56, 4021 Linz , Österreich",14.2773393,48.2569582,"helmholtzstraße 56, 4020 linz, austria","Andere"
"HPI High Pressure Instrumentation","2016","12",NA,"Überfuhrgasse 37
8020 Graz, Steiermark","x","Messeinrichtungen zur Evaluierung von Ballistik und Schutzausrüstung wie z.B. Schutzwesten, Helme, Panzerglas/-stahl","Ueberfuhrgasse 37, 8010 Graz","Ueberfuhrgasse 37","8010 Graz","Austria | Österreich","Christian Holzer (Sales & Marketing)","T +43 / 316 / 680 470 0","E info@hpi-gmbh.com","www.hpi-gmbh.com",67,"Ueberfuhrgasse 37, 8010 Graz , Österreich",15.4191019,47.0905388,"überfuhrgasse 37, 8020 graz, austria","Waffen & Munition"
"IKARUS Security Software GmbH","2016","38",NA,"Blechturmgasse 11
1050 Wien","x","IT-Sicherheit: AntiVirus, AntiSPAM-Client, Cloud Services, Sicherung von Kunden- und Unternehmensdaten","Blechturmgasse 11, 1050 Wien","Blechturmgasse 11","1050 Wien","Austria | Österreich",NA,"T +43 / 1 / 589 95 - 0","E office@ikarus.at","www.IKARUSsecurity.com",68,"Blechturmgasse 11, 1050 Wien , Österreich",16.3669166,48.1855785,"blechturmgasse 11, 1050 wien, austria","IT"
"INDUCE GmbH","2017","3",NA,"Am Heumarkt 11/2
1030 Wien","x","Consulting, industrielle Kooperation, Projektentwicklung, PR, Government Relations","Am Heumarkt 11, 1030 Wien","Am Heumarkt 11","1030 Wien","Austria | Österreich","Carl Julius Wagner","T +43 / 1 / 710 41 15","E office@induce.eu","www.induce.eu",69,"Am Heumarkt 11, 1030 Wien , Österreich",16.3807372,48.2020332,"am heumarkt 11, 1030 wien, austria","Andere"
"IN-VISION Digital Imaging Optics GmbH","2017","80",NA,"Gewerbepark, Industriestraße 9/6
2353 Guntramsdorf, Niederösterreich","x","optischen Systeme und Module: Light Engines für 3D Druck, Projektion, berührungslose Messsysteme und Lithografie, Objektive, Simulation","Industriestrasse 9, 2353 Guntramsdorf / Wien","Industriestrasse 9","2353 Guntramsdorf / Wien","Austria | Österreich","Dieter Luetze","T +43 / 664 / 357 75 13","E luetze@in-vision.at","www.in-vision.at",70,"Industriestrasse 9, 2353 Guntramsdorf / Wien , Österreich",16.3194251,48.0689585,"industriestraße 9, 2353 guntramsdorf, austria","Andere"
"J. Blaschke Wehrtechnik GmbH","2016","4",NA,"Wienerbergstraße 42-44
1120 Wien","x","CBRN-Schutz: Schutzbekleidung, Verletztenbergesäcke, Rucksäcke, Wassertank, Dekontaminations-Auffangwannen","Wienerbergstrasse 42-44, 1120 Wien","Wienerbergstrasse 42-44","1120 Wien","Austria | Österreich","Volker Haager","T +43 / 1 / 810 09 09","E office@blaschke.com","www.blaschke.com",71,"Wienerbergstrasse 42-44, 1120 Wien , Österreich",16.3286644,48.1721565,"wienerbergstraße 42-44, 1120 wien, austria","Fahrzeuge & Zubehör"
"JOANNEUM RESEARCH - DIGITAL","2017","445","2016: 7,67 Mio. EUR (Rumpfjahr VII-XII)","JOANNEUM RESEARCH Forschungsgesellschaft mbH
Leonhardstraße 59
8010 Graz, Steiermark","x","Schutz kritischer Infrastrukrut (Verkehr, Energieversorgung, Industrie) vor physischen und digitalen Angriffen","Leonhardstraße 59, 8010 Graz","Leonhardstraße 59","8010 Graz","Austria | Österreich","Maria Fellner","T +43 / 316 / 876 1637","E sales.digital@joanneum.at","www.joanneum.at/digital",72,"Leonhardstraße 59, 8010 Graz , Österreich",15.4549304,47.0739965,"leonhardstraße 59, 8010 graz, austria","Fahrzeuge & Zubehör"
"Kahles Gesellschaft m.b.H.","2018","60",NA,"Danfoss-Straße 5
2353 Guntramsdorf, Niederösterreich","x","Zielfernrohrproduktion","Danfoss-Straße 5, 2353 Guntramsdorf","Danfoss-Straße 5","2353 Guntramsdorf","Austria | Österreich",NA,"T +43 / 2236 / 520 20 - 0","E info@kahles.at","www.kahles.at",73,"Danfoss-Straße 5, 2353 Guntramsdorf , Österreich",16.3077014,48.0554166,"danfoss-straße, 2353 guntramsdorf, austria","Andere"
"Kapsch BusinessCom AG","2017","984","2016/17: 279,99 Mio. EUR","Wienerbergstraße 53
1120 Wien","x","Berater, Systemlieferant und Dienstleistungsanbieter für ICT-Infrastruktur, smarte Gebäude-, Medien- und Sicherheitstechnik sowie Outsourcing-Services","Wienerbergstraße 53, 1120 Wien","Wienerbergstraße 53","1120 Wien","Austria | Österreich",NA,"T +43 / 50 / 811 0","E kbc.office@kapsch.net","www.kapsch.net",74,"Wienerbergstraße 53, 1120 Wien , Österreich",16.3312523,48.1714531,"wienerbergstraße 53, 1120 wien, austria","Kommunikationstechnik"
"KIVU Technologies GmbH",NA,"n.v.",NA,"Mariahilfer Straße 133
1150 Wien","x","Data Intelligencefür Sicherheitsanalyse, Strafverfolgung und Betrugserkennung","Mariahilferstrasse 133, 1150 Wien","Mariahilferstrasse 133","1150 Wien","Austria | Österreich","Robert Wesley","T +43 / 699 / 171 901 11","E wesley@kivu.tech","www.kivu.tech",75,"Mariahilferstrasse 133, 1150 Wien , Österreich",16.3379443,48.1951133,"mariahilfer str. 133, 1150 wien, austria","IT"
"Kohlbrat & Bunz GmbH","2017","20",NA,"Loretostraße 4-8
5550 Radstadt, Salzburg","x","Rettungstragen und Vakuummatratzen zur Personenrettung und Stabilisierung während OP oder MRT","Loretostraße 6-8, 5550 Radstadt","Loretostraße 6-8","5550 Radstadt","Austria | Österreich","Haakan Rugfelt","T +43 / 6452 / 71 93 - 0","E office@kohlbrat-bunz.com","www.kohlbrat-bunz.com",76,"Loretostraße 6-8, 5550 Radstadt , Österreich",13.4607391,47.3867519,"loretostraße 6, 5550 radstadt, austria","Andere"
"KTS GmbH","2016","16",NA,"Jenschke-Straße 1
2542 Kottingbrunn, Niederösterreich","x","Kabelkonfektionen","Jenschke Strasse 1, 2542 Kottingbrunn","Jenschke Strasse 1","2542 Kottingbrunn","Austria | Österreich",NA,"T +43 / 2252 / 700 318","E office@kts-cable.com","www.kts-cable.com",77,"Jenschke Strasse 1, 2542 Kottingbrunn , Österreich",16.2536319,47.959606,"jenschkestraße 1, 2542 kottingbrunn, austria","Andere"
"Lenzing AG","2017 (Gruppe)","6308","2017 (Gruppe): 2.259,40 Mio. EUR","Werkstraße 2
4860 Lenzing (OÖ), Oberösterreich","x","Hygieneprodukte, Schutzbekleidung","Werkstraße 2, 4860 Lenzing","Werkstraße 2","4860 Lenzing","Austria | Österreich","Oliver Spöcker","T +43 / 7672 / 701 35 05","E o.spoecker@lenzing.com","www.lenzing.com",78,"Werkstraße 2, 4860 Lenzing , Österreich",13.6153359,47.9753394,"werkstraße 2, 4860 lenzing, austria","Personal-Ausrüstung"
"LieberLieber Software","2016","19",NA,"Handelskai 340 Top 5
1020 Wien","x","Model Engineering","Handelskai 340, 1020 Wien","Handelskai 340","1020 Wien","Austria | Österreich","Konrad Wieland","T +43 / 662 / 906 00 – 20 17","E konrad.wieland@lieberlieber.com","www.lieberlieber.com",79,"Handelskai 340, 1020 Wien , Österreich",16.4276043,48.2089014,"handelskai 340, 1020 wien, austria","Andere"
"Lobmeyr Public Image ",NA,"n.v.",NA,NA,"?","Kommunikationsagentur","Am Hof 11, Top 4, 1010 Wien","Am Hof 11, Top 4","1010 Wien","Austria | Österreich","Rudolph Lobmeyr","T +43 / 1 / 361 55 00","E r.lobmeyr@l-pi.eu","www.l-pi.eu",80,"Am Hof 11, Top 4, 1010 Wien , Österreich",16.3685457,48.2117317,"am hof 11/top 4, 1010 wien, austria","Andere"
"LPV gmbh","2015","1",NA,"Industriestraße I Nr. 4
2620 Neunkirchen, Niederösterreich","x","LPV: Push to Talk Satcom, Smartphoneverschlüsselung; Satcom liefert Daten- und Sprachkommunikation; 9K ballistics entwickelt ballistische Möbel und mobile Schutzwände","Industriestr. I 4, 2620 Neunkirchen","Industriestr. I 4","2620 Neunkirchen","Austria | Österreich",NA,"T +43 / 660 / 711 77 77","E uplink@satellite-telecom.net | operations@9kballistics.at","satellite-telecom.net | 9kballistics.at",81,"Industriestr. I 4, 2620 Neunkirchen , Österreich",16.0667163,47.7260877,"industriestraße, 2620, austria","Kommunikationstechnik"
"Maschinenfabrik Liezen und Gießerei Ges.m.b.H.","2016","699","2016: 97,25 Mio. EUR","Werkstraße 5
8940 Liezen, Steiermark","x","Stahlgussteile und Schweißbaugruppen für gepanzerte und ungepanzerte Fahrzeuge","Werkstraße 5, 8940 Liezen","Werkstraße 5","8940 Liezen","Austria | Österreich",NA,"T +43 / 3612 / 270 - 0","E office@mfl.at","www.mfl.at",82,"Werkstraße 5, 8940 Liezen , Österreich",14.2481623,47.5637658,"werkstraße 5, 8940 liezen, austria","Fahrzeuge & Zubehör"
"Meritor GmbH","2017","17",NA,"Werkstraße 13
4451 St. Ulrich bei Steyr, Oberösterreich","x","Sonderapplikationen im automotiven Antriebsstrang: Verteilergetriebebaureihen","Werkstraße 13, 4451 St. Ulrich / Steyr","Werkstraße 13","4451 St. Ulrich / Steyr","Austria | Österreich","Thomas Lang","T +43 / 7252 / 735 62 - 0","E office@meritor.at","www.meritor.at",83,"Werkstraße 13, 4451 St. Ulrich / Steyr , Österreich",14.4116148,48.0137167,"werkstraße 13, 4451 unterwald, austria","Fahrzeuge & Zubehör"
"Nimbusec GmbH","2016","5",NA,"Fadingerstraße 15
4020 Linz, Oberösterreich","x","Websecurity für Websiten","Fadingerstraße 15, 4020 Linz","Fadingerstraße 15","4020 Linz","Austria | Österreich","Alexander Mitter","T +43 / 699 / 144 155 11","E a.mitter@nimbusec.com","https://nimbusec.com",84,"Fadingerstraße 15, 4020 Linz , Österreich",14.2942769,48.3025508,"fadingerstraße 15, 4020 linz, austria","IT"
"NM Robotic GmbH","2016","3",NA,"Marienhöhe 25
4391 Waldhausen im Strudengau, Oberösterreich","x","mobile Roboter, autonome Fahrzeuge und Flugzeugdrohnen, Mechatronik-Beratung","Marienhöhe 25, 4391 Waldhausen im Strudengau ","Marienhöhe 25","4391 Waldhausen im Strudengau ","Austria | Österreich","Michael Naderhirn","T +43 / 676 / 976 04 83","E m.naderhirn@nmrobotic.com","www.nmrobotic.com",85,"Marienhöhe 25, 4391 Waldhausen im Strudengau  , Österreich",14.9440947,48.2760895,"marienhöhe 25, 4391 waldhausen im strudengau, austria","Andere"
"Oberaigner Powertrain GmbH","2017","82",NA,"Daimlerstraße 1
4155 Nebelberg, Oberösterreich","x","Allrad-Umrüstungen im Transporter-Bereich","Daimlerstrasse 1, 4155 Nebelberg","Daimlerstrasse 1","4155 Nebelberg","Austria | Österreich",NA,"T +43 / 7287 / 201 - 0","E sales@oberaigner.com","www.oberaigner.com",86,"Daimlerstrasse 1, 4155 Nebelberg , Österreich",13.8394656,48.6220168,"daimlerstraße 1, 4154 nebelberg, austria","Fahrzeuge & Zubehör"
"Ognios GmbH","2016","15",NA,"Dr.Hans Lechner Straße 6
5071 Wals bei Salzburg, Salzburg","x","Intercom-System für Zutritt, Kommunikation und Überwachung in institutionellen Einrichtungen","Dr.-Hans-Lechner-Straße 6, 5071 Wals-Siezenheim","Dr.-Hans-Lechner-Straße 6","5071 Wals-Siezenheim","Austria | Österreich",NA,"T +43 / 662 / 254 861","E office@ognios.com","www.ognios.com",87,"Dr.-Hans-Lechner-Straße 6, 5071 Wals-Siezenheim , Österreich",12.9914099,47.8110155,"dr.-hans-lechner-straße 6, 5071 siezenheim, austria","Kommunikationstechnik"
"Österreichische Staatsdruckerei GmbH - OeSD","2017","141","2016/17: 44,47 Mio. EUR","Tenschertstraße 7
1239 Wien","x","Identitätsmanagement: Datenerfassungssysteme, zentrales Melderegister, Personalisierungssysteme, Datenverifikation; Produktion von Sicherheitsdokumenten: elektronische Reisepässe, eID, Führerscheine, Zulassungsscheine, Visa, Standesnachweise","Tenschertstraße 7, 1239 Wien","Tenschertstraße 7","1239 Wien","Austria | Österreich",NA,"T +43 / 1 / 206 66 - 0","E office@staatsdruckerei.at","www.staatsdruckerei.at",88,"Tenschertstraße 7, 1239 Wien , Österreich",16.3543895,48.1396642,"tenschertstraße 7, 1230 wien, austria","Andere"
"PALFINGER EMEA GmbH Defence Solutions",NA,"n.v.",NA,NA,"?","Be- und Entladung von Gütern","Kapellenstraße 18, 5211 Friedburg/Lengau","Kapellenstraße 18","5211 Friedburg/Lengau","Austria | Österreich","Franz Thaller | Josef Fenninger | Robert Stengel","T +43 / 7746 / 22 81 - 0","E govsales@palfinger.com","www.palfinger.com",89,"Kapellenstraße 18, 5211 Friedburg/Lengau , Österreich",13.2236018,48.0085938,"kapellenstraße 18, 5211 lengau, austria","Fahrzeuge & Zubehör"
"Pankl Aerospace Systems Europe GmbH","2016","66",NA,"Industriestrasse West 4
8605 Kapfenberg, Steiermark","x","Antriebskomponenten, Getriebe, Turbinenwellen, Luftbetankunksrohren, Strukturbauteile für Luftfahrzeuge, Triebwerk und UAVs, Kabinenausstattungen","Industriestrasse West 4, 8605 Kapfenberg","Industriestrasse West 4","8605 Kapfenberg","Austria | Österreich",NA,"T +43 / 3862 / 339 99","E aerospace@pankl.com","www.pankl.com",90,"Industriestrasse West 4, 8605 Kapfenberg , Österreich",15.3409492,47.4570557,"industriestraße west 4, 8605 pötschach, austria","Andere"
"pewag austria GmbH","2016 (Gruppe)","839","2016 (Gruppe): 129,05 Mio. EUR","Gaslaternenweg 4
8041 Graz, Steiermark","x","Schnee- und Traktionsketten","Gaslaternenweg 4, 8041 Graz","Gaslaternenweg 4","8041 Graz","Austria | Österreich",NA,"T +43 / 50 5011 - 0","E saleinfo@pewag.com","www.pewag.com",91,"Gaslaternenweg 4, 8041 Graz , Österreich",15.4618651,47.0465866,"gaslaternenweg 4, 8010 graz, austria","Fahrzeuge & Zubehör"
"Photonic Optische Geräte GesmbH & Co. KG","2018","18","2016: 5,64 Mio. EUR","Seeböckgasse 59
1160 Wien","x","optomechatronische für Sicherheitstechnik, Life-Science, Industrie und Medizintechnik: Beleuchtungsmodule, Lichtquellen, Operationsleuchten, sicherheitstechnische Geräte","Seeböckgasse 59, 1160 Wien","Seeböckgasse 59","1160 Wien","Austria | Österreich","Birgit Trautsamwieser","T +43 / 1 / 486 56 91 – 36","E trautsamwieser@photonic.at","www.photonic.at",92,"Seeböckgasse 59, 1160 Wien , Österreich",16.310008,48.2186027,"seeböckgasse 59, 1160 wien, austria","Andere"
"ProOrienteConsultationes KG",NA,"n.v.",NA,"Hauptstraße 24
3482 Stettenhof, Niederösterreich","x","Beratung und Handel, spezialisiert auf den arabischen Raum und Afrika","Hauptstraße 24, 3482 Stettenhof","Hauptstraße 24","3482 Stettenhof","Austria | Österreich","Berndt Wesiak","T +43 / 676 / 409 00 65","E berndt.wesiak@pro-oriente.co.at","www.pro-oriente.co.at",93,"Hauptstraße 24, 3482 Stettenhof , Österreich",15.8056678,48.484884,"hauptstraße 24, 3482, austria","Andere"
"RadarServices Smart IT-Security GmbH","2017","88",NA,"Zieglergasse 6, Stiege 3
1070 Wien","x","IT-Sicherheit und -Risikomanagement","Zieglergasse 6, 1070 Wien","Zieglergasse 6","1070 Wien","Austria | Österreich","Isabell Claus","T +43 / 1 / 929 12 71 - 0","E sales@radarservices.com","www.radarservices.com",94,"Zieglergasse 6, 1070 Wien , Österreich",16.3457708,48.197941,"zieglergasse 6, 1070 wien, austria","IT"
"Raetia Technologies GmbH","2016","0",NA,"Ladestraße 8
6370 Kitzbühel, Tirol","x","IT-Beratung, Network Consulting, Security Audits, Hard- und Software","Ladestrasse 8, 6370 Kitzbühel","Ladestrasse 8","6370 Kitzbühel","Austria | Österreich","Nikolaus Kramheller","T +43 / 676 / 397 02 21","E nk@raetia-tec.at","www.raetia-tec.at",95,"Ladestrasse 8, 6370 Kitzbühel , Österreich",12.3925407,47.4492375,"6370 kitzbuhel, austria","IT"
"Raytech VertriebsgmbH","2018","27",NA,"Johann Steinböck-Straße 12
2345 Brunn am Gebirge, Niederösterreich","x","elektrische Systeme und Verkabelungsmaterial: Kabelbäume, Battle Panels, Verbindungsstecker, Leitungen in Komposit und Aluguss","Johann Steinböck-Straße 12, 2345 Brunn am Gebirge","Johann Steinböck-Straße 12","2345 Brunn am Gebirge","Austria | Österreich",NA,"T +43 / 2236 / 90 300","E sales@raytech-group.com","raytech-group.com",96,"Johann Steinböck-Straße 12, 2345 Brunn am Gebirge , Österreich",16.308713,48.1078929,"johann steinböck-straße 12, 2345 brunn am gebirge, austria","Fahrzeuge & Zubehör"
"REPUCO Unternehmensberatung GmbH","2017","4",NA,"Frankenberggasse 9/5
1040 Wien","x","Strategieberatung","Frankenberggasse 9/5, 1040 Wien","Frankenberggasse 9/5","1040 Wien","Austria | Österreich","Wolfgang Gattringer","T +43 / 1 / 886 56 29","E office@repuco.at","www.repuco.at",97,"Frankenberggasse 9/5, 1040 Wien , Österreich",16.3685488,48.1973111,"frankenberggasse 9, 1040 wien, austria","IT"
"RESCO Consulting GmbH","2015","3",NA,"Hauptstraße 151
8141 Unterpremstätten, Steiermark","x","Vertrieb eines schusssicheren Betonsteins","Hauptstraße 151, 8141 Premstätten","Hauptstraße 151","8141 Premstätten","Austria | Österreich",NA,"T +43 / 3136 / 529 89","E office@resco.cc","www.resco.cc",98,"Hauptstraße 151, 8141 Premstätten , Österreich",15.4037872,46.9708389,"hauptstraße 151, 8141 unterpremstätten, austria","Personal-Ausrüstung"
"RESSENIG Fahrzeugbau GmbH","2016","132","2013/14: 17,47 Mio. EUR","St. Martiner Straße 124
9500 Villach, Kärnten","x","Schutzsysteme für Fahrzeuge","St. Martinerstraße 124, 9500 Villach","St. Martinerstraße 124","9500 Villach","Austria | Österreich",NA,"T +43 / 4242 / 50 10 – 0","E office@ressenig.at","www.ressenig.at",99,"St. Martinerstraße 124, 9500 Villach , Österreich",13.8219158,46.6252143,"st. martiner str. 124, 9500 villach, austria","Fahrzeuge & Zubehör"
"Rheinmetall MAN Military Vehicles Österreich GmbH","2016","691","2016: 366,21 Mio. EUR","Brunner Straße 44-50
1230 Wien","x","geschützte LKW-Systeme","Brunner-Str. 44-50, 1230 Wien","Brunner-Str. 44-50","1230 Wien","Austria | Österreich",NA,"T +43 / 1 / 866 20 – 0 ","E militarytrucks@rheinmetall.com","www.rheinmetall-defence.com",100,"Brunner-Str. 44-50, 1230 Wien , Österreich",16.2977062,48.1393114,"brunner str. 44, 1230 wien, austria","Fahrzeuge & Zubehör"
"Rheinmetall Waffe Munition ARGES GmbH","2016","25","2016: 5,82 Mio. EUR","Kaufing 31
4690 Schwanenstadt, Oberösterreich","x","Ausrüstung für Heer, Marine und Luftwaffe, v.a. (Übungs-) Patronen und Handgranaten","Kaufing 31, 4690 Schwanenstadt","Kaufing 31","4690 Schwanenstadt","Austria | Österreich","Johann Stögermüller","T +43 / 7673 / 805 10 - 0","E Johann.Stoegermueller@Rheinmetall.com","www.rheinmetall.com",101,"Kaufing 31, 4690 Schwanenstadt , Österreich",13.8008506,48.0556182,"kaufing 31, 4690 kaufing, austria","Waffen & Munition"
"Rohde & Schwarz Österreich GesmbH","2017","36","2016/17: 55,55 Mio. EUR","Technologiestraße 10/Gebäude E
1120 Wien","x","Cybersecurity und Defense, Hard- und Software-Lösungen, Messtechnik","Technologiestraße 10 I Gebäude E, 1120 Wien","Technologiestraße 10 I Gebäude E","1120 Wien","Austria | Österreich","Günther Topil","T +43 / 1 / 602 61 41 - 0","E rs-austria@rohde-schwarz.com","www.rohde-schwarz.com",102,"Technologiestraße 10 I Gebäude E, 1120 Wien , Österreich",16.3337591,48.1687415,"gebäude e, technologiestraße 10, 1120 wien, austria","Kommunikationstechnik"
"RO-RA Aviation Systems GmbH","2016","166",NA,"Gewerbepark 8
4861 Schörfling am Attersee, Oberösterreich","x","Herstellung von Metall- und Kunststoffteilen für die Luftfahrtindustrie","Gewerbepark 8, 4861 Schörfling am Attersee","Gewerbepark 8","4861 Schörfling am Attersee","Austria | Österreich",NA,"T +43 / 7662 / 57 888","E office@ro-ra.com","www.ro-ra.com",103,"Gewerbepark 8, 4861 Schörfling am Attersee , Österreich",13.6170784,47.9537215,"gewerbepark 8, 4861 niederham, austria","Andere"
"Rosenbauer International AG","2016 (Gruppe)","3312","2016 (Gruppe): 870,81 Mio. EUR","Paschinger Str. 90
4060 Leonding, Oberösterreich","x","Fahrzeuge, Löschtechnik, Ausrüstung und Telematiklösungen für Feuerwehren sowie vorbeugende Brandschutz","Paschinger Straße 90, 4060 Leonding","Paschinger Straße 90","4060 Leonding","Austria | Österreich",NA,"T +43 / 732 / 67 94 - 0","E office@rosenbauer.com","www.rosenbauer.com",104,"Paschinger Straße 90, 4060 Leonding , Österreich",14.2434823,48.2713893,"paschinger str. 90, 4060 leonding, austria","Fahrzeuge & Zubehör"
"RUAG Ammotec Austria GmbH","2018","17",NA,"Walter Business Park,Str. 7,Obj. 58D/1
2355 Wiener Neudorf, IZ NÖ-Süd, Niederösterreich","x","kleinkalibrige Standard- und Spezialmunition","IZ NÖ-Süd, Straße 7, Objekt 58D, 2355 Wiener Neudorf","IZ NÖ-Süd, Straße 7, Objekt 58D","2355 Wiener Neudorf","Austria | Österreich","Georg Coester","T +43 / 2236 / 677 735 - 0","E info.at.ammotec@ruag.com","www.ruag-ammotec.com",105,"IZ NÖ-Süd, Straße 7, Objekt 58D, 2355 Wiener Neudorf , Österreich",16.333152,48.067192,"iz nö-süd straße 14 7, 2355 wiener neudorf, austria","Waffen & Munition"
"RUAG Space GmbH","2017","241","2017: 47,45 Mio. EUR","Stachegasse 16
1120 Wien","x","Ausrüstung von Satelliten mit Elektronik, Mechanik und Thermalisolationen","Stachegasse 16, 1120 Wien","Stachegasse 16","1120 Wien","Austria | Österreich",NA,"T +43 / 1 / 801 99 - 0","E info.at.space@ruag.com","www.ruag.com/space",106,"Stachegasse 16, 1120 Wien , Österreich",16.311053,48.1622934,"stachegasse 16, 1120 wien, austria","Andere"
"RUBICON IT GmbH","2016","152",NA,"Werdertorgasse 14
1010 Wien","x","Software Development","Werdertorgasse 14, 1010 Wien","Werdertorgasse 14","1010 Wien","Austria | Österreich",NA,"T +43 / 1 / 533 25 55","E office@rubicon.eu","www.rubicon.eu",107,"Werdertorgasse 14, 1010 Wien , Österreich",16.3715812,48.2154378,"werdertorgasse 14, 1010 wien, austria","IT"
"SAIL LABS Technology","2017","22",NA,"Mariannengasse 14
1090 Wien","x","Sprach- und Multimediaverarbeitung: Datengewinnung, Visual Analytics, Reporting Tools, Sprach- und Sprechererkennung, Polaritätsanalyse, Eigennamen- und Themenerkennung, Texterkennung, Ontologien, Social Media Analytics","Mariannengasse 14, 1090 Wien","Mariannengasse 14","1090 Wien","Austria | Österreich",NA,"T +43 / 1 / 580 95 - 0","E info4speech@sail-labs.com","www.sail-labs.com",108,"Mariannengasse 14, 1090 Wien , Österreich",16.3483915,48.2162468,"mariannengasse 14, 1090 wien, austria","Personal-Ausrüstung"
"Sattler group",NA,"n.v.",NA,NA,"?","militärische Schutztextilien: Markisen, Planen und technische Textilien","Sattlerstraße 45, 8077 Gössendorf","Sattlerstraße 45","8077 Gössendorf","Austria | Österreich","Erwin Kollegger","T +43 / 316 / 4104 - 0","E mail@sattler-global.com","www.sattler.com",109,"Sattlerstraße 45, 8077 Gössendorf , Österreich",15.4691376,47.0095082,"sattlerstraße 45, 8041 thondorf, austria","Fahrzeuge & Zubehör"
"SAWI Electronic GmbH","2016","49",NA,"Reaktorstraße 9
2440 Reisenberg, Niederösterreich","x","Entwicklung und Produktion von elektronischen Baugruppen, Komponenten für Fernzünder","Reaktorstrasse 9, 2440 Reisenberg","Reaktorstrasse 9","2440 Reisenberg","Austria | Österreich",NA,"T +43 / 2234 / 804 50","E office@sawi.co.at","www.sawi.co.at",110,"Reaktorstrasse 9, 2440 Reisenberg , Österreich",16.5231078,47.994304,"reaktorstraße 9, 2440 reisenberg, austria","Andere"
"SBA Research gGmbH","2017","83",NA,"Favoritenstraße 16
1040 Wien","x","Forschungszentrum für Informationssicherheit","Favoritenstrasse 16, 1040 Wien","Favoritenstrasse 16","1040 Wien","Austria | Österreich","Markus Klemen","T +43 / 1 / 505 36 88","E mklemen@sba-research.org","www.sba-research.org",111,"Favoritenstrasse 16, 1040 Wien , Österreich",16.3696142,48.1946431,"favoritenstraße 16, 1040 wien, austria","IT"
"SCE SystemEngineering GmbH","2016","1",NA,"Berchtesgadner Straße 11
5020 Salzburg, Salzburg","x","Flug- und Bewegungssimulationssysteme, Energietechnik (Solar- und Trocknungssteuerung), Industriebussysteme, Netzwerkprogrammierung","Berchtesgadner Strasse 11, 5020 Salzburg","Berchtesgadner Strasse 11","5020 Salzburg","Austria | Österreich","Margit Scharfetter","T +43 / 664 / 515 51 26","E cirrus@sce.co.at","www.sce.co.at",112,"Berchtesgadner Strasse 11, 5020 Salzburg , Österreich",13.0431117,47.7770411,"berchtesgadner str. 11, 5020 salzburg, austria","Andere"
"Scheibner Business Development GmbH","2015","1",NA,"Kramergasse 9/5
1010 Wien","x","Exportberater und Projektentwicklung in der Region Nahost-Nordafrika","Kramergasse 9, 1010 Wien","Kramergasse 9","1010 Wien","Austria | Österreich",NA,"T +43 / 1 / 890 59 32","E office@hsbd.at","www.hsbd.at",113,"Kramergasse 9, 1010 Wien , Österreich",16.3731778,48.2099984,"kramergasse 9, 1010 wien, austria","Andere"
"Schiebel Elektronische Geräte GmbH","2016","225","2016: 43,99 Mio. EUR","Margaretenstrasse 112
1050 Wien","x","Minensuchgeräte, unbemannte Helikopter, Composites Technologie","Margaretenstraße 112, 1050 Wien","Margaretenstraße 112","1050 Wien","Austria | Österreich",NA,"T +43 / 1 / 546 26 0","E info@schiebel.net","www.schiebel.net",114,"Margaretenstraße 112, 1050 Wien , Österreich",16.3540467,48.1888586,"margaretenstraße 112, 1050 wien, austria","Fahrzeuge & Zubehör"
"Schoen Aerospace Trading & Consulting GmbH","2016","6",NA,"Consulting GmbH","x","Systemintegration, Marketing, Projektmanagement, logistische Betreuung, Wirtschaftskooperation, Exportberatung","Graben 19, 1010 Wien","Graben 19","1010 Wien","Austria | Österreich","Walter Schön","T +43 / 1 / 533 95 39","E office@schoenaerospace.at","www.schoenaerospace.at",115,"Graben 19, 1010 Wien , Österreich",16.3682343,48.2094433,"graben 19, 1010 wien, austria","Andere"
"SCHUHFRIED GmbH","2017","63","2016/17: 7,50 Mio. EUR","Hyrtlstr. 45
2340 Mödling, Niederösterreich","x","Leistungstests (visuelles Kurzzeitgedächtnis, Zeit- und Bewegungsantizipation, Handgeschicklichkeit) für Anforderungen im Militär","Hyrtlstrasse 45, 2340 Mödling","Hyrtlstrasse 45","2340 Mödling","Austria | Österreich",NA,"T +43 / 2236 / 423 15 - 40","E info@schuhfried.com","www.schuhfried.com",116,"Hyrtlstrasse 45, 2340 Mödling , Österreich",16.3071258,48.0860987,"hyrtlstraße 45, 2340 mödling, austria","Andere"
"SCOTTY Group Austria GmbH","2017","17",NA,"Friedrich Wilhelm Raiffeisen Straße 3
7000 Eisenstadt, Burgenland","x","Satellitenkommunikation: Liveübertragung von Daten, Video und Audio, „Speichersenden“ von Videoaufzeichnungen","Teslastraße 4, 8074 Raaba-Grambach","Teslastraße 4","8074 Raaba-Grambach","Austria | Österreich","Chris Halverson","T +43 / 316 / 409 426 - 55","E c.halverson@scottygroup.com","www.scottygroup.com",117,"Teslastraße 4, 8074 Raaba-Grambach , Österreich",15.5004044,47.0186142,"teslastraße 4, 8074 grambach, austria","Kommunikationstechnik"
"SEC Consult Unternehmensberatung GmbH","2016","49",NA,"Komarigasse 14/1
2700 Wiener Neustadt, Niederösterreich","x","Berater im Bereich Cyber- und Applikationssicherheit: Zertifizierungsbegleitung ISO 27001, Cyber-Defence, DDoS-Tests, externe und interne Sicherheitstests, sichere Software(-Entwicklung)","Mooslackengasse 17, 1190 Wien","Mooslackengasse 17","1190 Wien","Austria | Österreich",NA,"T +43 / 1 / 890 30 41","E office@sec-consult.com","www.sec-consult.com",118,"Mooslackengasse 17, 1190 Wien , Österreich",16.3651183,48.2499714,"mooslackengasse 17, 1190 wien, austria","IT"
"SecureGUARD GmbH","2016","0",NA,"Industriezeile 35
4020 Linz, Oberösterreich","x","IoT,Cloud-Infrastruktur, Firewall, Proxy- und Remote Access Lösungen","Industriezeile 35, 4020 Linz","Industriezeile 35","4020 Linz","Austria | Österreich",NA,"T +43 / 732 / 601 440","E office@secureguard.at","www.secureguard.at",119,"Industriezeile 35, 4020 Linz , Österreich",14.313745,48.31372,"industriezeile 35, 4020 linz, austria","IT"
"SIMGUN GmbH",NA,"n.v.",NA,"Ringstraße 32/2
6840 Götzis, Vorarlberg","x","Duellsimulatoren","Ringstrasse 32/2, 6840 Götzis","Ringstrasse 32/2","6840 Götzis","Austria | Österreich","Patrick Riedesser","T +43 / 5523 / 510 07","E office@simgun.com","www.simgun.com",120,"Ringstrasse 32/2, 6840 Götzis , Österreich",9.6411335,47.333621,"ringstraße 32, 6840 götzis, austria","Waffen & Munition"
"smp aviation","2016","4",NA,"SMP Consulting & Handel GmbH
Am Leopoldsgrund 8
8055 Graz, Steiermark","x","Satellitenkommunikationssystem für die Luftfahrt","Plüddemanngasse 67a, 8010 Graz","Plüddemanngasse 67a","8010 Graz","Austria | Österreich","Manfred Scheiring","T +43 / 699 / 142 414 21 ","E sales@smp-aviation.com","www.smp-aviation.com",121,"Plüddemanngasse 67a, 8010 Graz , Österreich",15.4659304,47.0637624,"plüddemanngasse 67a, 8010 graz, austria","Kommunikationstechnik"
"Spintower KG",NA,"n.v.",NA,"Teslastraße 4a
8074 Raaba-Grambach, Steiermark","x","hochverschlüsselte Videokommunikationssystem, live Lageüberblick, bidirektionale Kommunikation (Sprache, Video, Daten) und Lokalisierung in der Kommandozentrale","Teslastrasse 4a, 8074 Grambach","Teslastrasse 4a","8074 Grambach","Austria | Österreich","Mario Schwaiger","T +43 / 316 / 214 273 - 0","E office@spintower.eu","www.darvin.live",122,"Teslastrasse 4a, 8074 Grambach , Österreich",15.5004044,47.0186142,"teslastraße 4, 8074 grambach, austria","Kommunikationstechnik"
"St. Pölten University of Applied Sciences",NA,"n.v.",NA,NA,"?","IT-Security-Maßnahmen, -Verfahren und -Lösungen","Matthias Corvinus-Strasse 15, 3100 St. Pölten","Matthias Corvinus-Strasse 15","3100 St. Pölten","Austria | Österreich","Ernst Piller","T +43 / 2742 / 313 228 636","E ernst.piller@fhstp.ac.at","www.fhstp.ac.at | isf.fhstp.ac.at",123,"Matthias Corvinus-Strasse 15, 3100 St. Pölten , Österreich",15.6320474,48.213797,"matthias corvinus-straße 15, 3100 st. pölten, austria","Andere"
"STEYR MANNLICHER GmbH","2016","166","2016: 30,94 Mio. EUR","Ramingtal 46
4442 Kleinraming, Oberösterreich","x","Hand- und Faustfeuerwaffen für Militär, Polizei und Sicherheitskräfte: Pistolen, Scharfschützengewehre, Sturmgewehre, Granatwerfer, Selbstschutzwaffen","Ramingtal 46, 4442 Kleinraming","Ramingtal 46","4442 Kleinraming","Austria | Österreich","Gundaccar Wurmbrand-Stuppach","T +43 / 7252 / 896 - 0","E office@steyr-mannlicher.com","www.steyr-mannlicher.com",124,"Ramingtal 46, 4442 Kleinraming , Österreich",14.495716,47.9978287,"ramingtal 46, 4442 kürnberg, austria","Waffen & Munition"
"STEYR MOTORS GmbH","2016","185","2016: 36,19 Mio. EUR","Im Stadtgut B 1
4407 Steyr, Oberösterreich","x","Hochleistungsdieselmotoren, Aggregate und diesel-elektrischen Antriebslösungen","Im Stadtgut B1, 4407 Steyr","Im Stadtgut B1","4407 Steyr","Austria | Österreich",NA,"T +43 / 7252 / 222 - 0","E office@steyr-motors.com","www.steyr-motors.com",125,"Im Stadtgut B1, 4407 Steyr , Österreich",14.4294491,48.072758,"im stadtgut zone b 1, 4407 steyr, austria","Fahrzeuge & Zubehör"
"SVI Austria GmbH","2017","250","2014/15: 76,62 Mio. EUR","Frauentaler Straße 100
8530 Deutschlandsberg, Steiermark","x","elektronische Baugruppen, Komplettgeräte, Kabel und Systeme","Frauentaler Straße 100, 8530 Deutschlandsberg","Frauentaler Straße 100","8530 Deutschlandsberg","Austria | Österreich","Gerold Grill","T +43 / 3462 / 68 00 - 0","E office@svi-austria.com","www.SVI-HQ.com",126,"Frauentaler Straße 100, 8530 Deutschlandsberg , Österreich",15.2332067,46.8200923,"frauentaler str. 100, 8530 deutschlandsberg, austria","Fahrzeuge & Zubehör"
"Swarovski Optik KG","2014","800","2013: 123,60 Mio. EUR","Daniel-Swarovski-Straße 70
6067 Absam, Tirol","x","Ferngläser, Teleskope, Zielfernrohre und optronische Geräte","Daniel-Swarovski-Strasse 70, 6068 Absam","Daniel-Swarovski-Strasse 70","6068 Absam","Austria | Österreich","Richard Kramer","T +43 / 5223 / 51 10","E info@swarovskioptik.com","www.swarovskioptik.com",127,"Daniel-Swarovski-Strasse 70, 6068 Absam , Österreich",11.5219271,47.3027696,"daniel swarovski-straße 70, 6067 absam, austria","Andere"
"T3K-Forensics GmbH","2016","0",NA,"Jacquingasse 51
1030 Wien","x","Mobilforensik: Service- und Schulungen für nationale und internationale Strafverfolgungsbehörden, Mobilforensik-Lösungen, Gerichtsgutachten, Eigenentwicklung von Mobilforensik-Software, automatisierte Analytics-Lösungen","Jacquingasse 51, Top 3, 1030 Wien","Jacquingasse 51, Top 3","1030 Wien","Austria | Österreich","Felix Klier","T +43 / 1 / 929 15 91 60","E office@t3k-forensics.com","www.t3k-forensics.com",128,"Jacquingasse 51, Top 3, 1030 Wien , Österreich",16.3845884,48.1894594,"jacquingasse 51/top 3, 1030 wien, austria","Andere"
"TEST-FUCHS GMBH","2017","345","2016/17: 54,60 Mio. EUR","Test-Fuchs-Straße 1-5
3812 Groß Siegharts, Niederösterreich","x","Prüfanlagen für die Luft- und Raumfahrtindustrie, Ground Support Equipment, Fertigung fliegender Komponenten und Kryogenik-Ventilen","Test-Fuchs Strasse 1-5, 3812 Gross-Siegharts","Test-Fuchs Strasse 1-5","3812 Gross-Siegharts","Austria | Österreich",NA,"T +43 / 2847 / 90 01 - 0","E office@test-fuchs.com","www.test-fuchs.com",129,"Test-Fuchs Strasse 1-5, 3812 Gross-Siegharts , Österreich",15.4096112,48.7958622,"test-fuchs-straße 1-5, 3812 groß-siegharts, austria","Andere"
"Thales","2016","308","2016: 87,72 Mio. EUR","Handelskai 92
1200 Wien","x","Transportaktivitäten, Schutz von Eisenbahnunternehmen vor Cyber Vorfällen, Flugsicherungssystem, Nachtsichtgeräte, Kommunikations- und Radarlösungen","Handelskai 92, 1200 Wien","Handelskai 92","1200 Wien","Austria | Österreich","Christian Loew","T +43 / 664 / 850 13 44","E christian.loew@thalesgroup.com","www.thalesgroup.com/austria",130,"Handelskai 92, 1200 Wien , Österreich",16.3850288,48.24236,"handelskai 92, 1200 wien, austria","Waffen & Munition"
"Trixy Aviation Products GmbH","2017","0",NA,"Eschbühel 10 F
6850 Dornbirn, Vorarlberg","x","Leichtflugzeuge und Tragschrauber mit Echtzeit-Überwachungssystem mit Radar, Kameras und direkter
 Datenübertragung, Up-/Downlink Techniken","Eschbuehel 10 F, 6850 Dornbirn","Eschbuehel 10 F","6850 Dornbirn","Austria | Österreich","Rainer Farrag","T +43 / 664 / 396 86 05","E rainer@trixyaviation.com","www.trixyaviation.com",131,"Eschbuehel 10 F, 6850 Dornbirn , Österreich",9.7580782,47.4279387,"eschbühel 10f, 6850 dornbirn, austria","Fahrzeuge & Zubehör"
"TÜV AUSTRIA CERT GMBH","2016","60",NA,"Deutschstraße 10
1230 Wien","x","Prüfung, Inspektion, Zertifizierung, Aus- und Weiterbildung","Deutschstraße 10, 1230 Wien","Deutschstraße 10","1230 Wien","Austria | Österreich",NA,"T +43 / 504 54 - 0","E office@tuv.at","www.tuv.at",132,"Deutschstraße 10, 1230 Wien , Österreich",16.3569001,48.1417282,"deutschstraße 10, 1230 wien, austria","Andere"
"Ulbrichts Witwe GmbH","2017","140","2016/17: 38,62 Mio. EUR","Kaufing 34
4690 Schwanenstadt, Oberösterreich","x","Helme aus Titan und Titan-Aramid","Kaufing 34, 4690 Schwanenstadt","Kaufing 34","4690 Schwanenstadt","Austria | Österreich",NA,"T +43 / 7673 / 27 81 - 0",NA,"www.ulbrichts.com",133,"Kaufing 34, 4690 Schwanenstadt , Österreich",13.8024221,48.0565585,"kaufing 34, 4690 kaufing, austria","Personal-Ausrüstung"
"Valentin Tusch GmbH Sonderfahrzeugbau","2016","9",NA,"Plescherken 18
9074 Keutschach, Kärnten","x","Sonderschutzfahrzeuge für Personenschutz, Geldtransporter und taktischen Fahrzeuge, Antiminensitze, Add-on Kits zum ballistischen Schutz für Hubschrauber","Plescherken 18, 9074 Keutschach","Plescherken 18","9074 Keutschach","Austria | Österreich",NA,"T +43 / 4273 / 210 07","E valentin.tusch@security-car.com","www.security-car.com",134,"Plescherken 18, 9074 Keutschach , Österreich",14.1469539,46.586256,"plescherken 18, 9074 plescherken, austria","Fahrzeuge & Zubehör"
"Vexcel Imaging GmbH","2017","41","2016/17: 23,70 Mio. EUR","Anzengrubergasse 8
8010 Graz, Steiermark","x","Luftbildkameras, mobilenSensorplattformen, Nadir- und Obliquekameras, Wide-Area-Mapping Systeme, Software Suite","Anzengrubergasse 8, 8010 Graz","Anzengrubergasse 8","8010 Graz","Austria | Österreich",NA,"T +43 / 316 / 849 066 - 0","E info@vexcel-imaging.com","www.vexcel-imaging.com",135,"Anzengrubergasse 8, 8010 Graz , Österreich",15.4423373,47.0620219,"anzengrubergasse 8, 8010 graz, austria","Andere"
"Viewpointsystem Gmbh","2017","21",NA,"Franz-Josefs-Kai 47/3. OG
1010 Wien","x","Eye-Tracking-Systeme, Blickanalyse, Audio- & Video Live Streaming","Franz-Josefs-Kai 47, 1010 Wien","Franz-Josefs-Kai 47","1010 Wien","Austria | Österreich",NA,"T +43 / 1 / 208 90 90","E office@viewpointsystem.com","viewpointsystem.com",136,"Franz-Josefs-Kai 47, 1010 Wien , Österreich",16.3721513,48.2153546,"franz-josefs-kai 47, 1010 wien, austria","Kommunikationstechnik"
"Villinger GmbH","2016","6",NA,"Gewerbepark 6
6142 Mieders, Tirol","x","Enteisungssysteme, elektrisch beheizbare Beschichtungen, Innenraumheizungen","Gewerbepark 6, 6142 Mieders","Gewerbepark 6","6142 Mieders","Austria | Österreich","Markus Villinger","T +43 / 5225 / 644 55","E info@villinger.com","www.villinger.com",137,"Gewerbepark 6, 6142 Mieders , Österreich",11.365708,47.1571972,"gewerbepark 6, 6142 mieders, austria","Andere"
"VOERE Präzisionstechnik GmbH","2017","66",NA,"Untere Sparchen 56
6330 Kufstein, Tirol","x","Präzisions- und Waffentechnik","Untere Sparchen 56, 6330 Kufstein","Untere Sparchen 56","6330 Kufstein","Austria | Österreich","Sven RuhlandT +43 / 5372 / 625 47E office@voere.atW www.voere.com",NA,NA,"www.voere.com/de/",138,"Untere Sparchen 56, 6330 Kufstein , Österreich",12.1824082,47.5960823,"untere sparchen 56, 6330 kufstein, austria","Waffen & Munition"
"Waagner-Biro Bridge Systems AG","2017","36","2017: 15,16 Mio. EUR","Leonard-Bernstein-Straße 10
1220 Wien","x","modulare Brückensysteme mit Tragfähigkeit bis zur militärischen Lastenklasse (MLC)","Leonard -Bernstein-Strasse 10, 1220 Wien","Leonard -Bernstein-Strasse 10","1220 Wien","Austria | Österreich","Oswald Hutter","T +43 / 1 / 288 44 - 208","E oswald.hutter@waagner-biro.at","www.waagner-biro.com",139,"Leonard -Bernstein-Strasse 10, 1220 Wien , Österreich",16.413363,48.236467,"leonard-bernstein-straße 10, 1220 wien, austria","Andere"
"WFL Millturn Technologies","2016","326","2016: 87,89 Mio. EUR","Wahringerstr. 36
4030 Linz, Oberösterreich","x","multifunktionale Dreh-Bohr-Fräszentren","Wahringerstraße 36, 4030 Linz","Wahringerstraße 36","4030 Linz","Austria | Österreich",NA,"T +43 / 732 / 69 13 - 0","E office@wfl.at","www.wfl.at",140,"Wahringerstraße 36, 4030 Linz , Österreich",14.3257497,48.2672543,"bg06, wahringerstraße 36, 4030 linz, austria","Andere"
"Zoerkler Gears GmbH & Co KG","2017","91",NA,"Friedrich Zoerkler Straße 1
7093 Jois, Burgenland","x","Getriebe, Antriebssysteme, Präzisionsteile, Stirn- und Kegelräder","Friedrich Zoerkler Strasse 1, 7093 Jois","Friedrich Zoerkler Strasse 1","7093 Jois","Austria | Österreich","Bernhard Wagner","T +43 / 2160 / 204 00","E office@zoerkler.at","www.zoerkler.at",141,"Friedrich Zoerkler Strasse 1, 7093 Jois , Österreich",16.8003493,47.9653164,"friedrich zoerkler str. 1, 7093 jois, austria","Fahrzeuge & Zubehör"
"MAGNA STEYR AG","2016","752","2016: 190,18 Mio. EUR","MAGNA STEYR AG & Co KG
Liebenauer Hauptstraße 317
8041 Graz, Steiermark","x","Automobilzulieferer, Gesamtfahrzeugentwicklung und -produktion","Liebenauer Hauptstraße 317, 8041 Graz, Steiermark","Liebenauer Hauptstraße 317, 8041 Graz, Steiermark","8041 Graz","Österreich",NA,NA,NA,"www.magna.com/de",NA,"Liebenauer Hauptstraße 317, 8041 Graz, Steiermark , Österreich",15.4741699,47.0194208,"liebenauer hauptstraße 317, 8041 graz, austria","Fahrzeuge & Zubehör"
"Ad2V Industries GmbH","2015","2",NA,"Technologiepark, Europastraße 8
9524 Villach-St. Magdalen, Kärnten","x","Nachtsichtgeräte","Technologiepark, Europastraße 8
9524 Villach-St. Magdalen, Kärnten","Technologiepark, Europastraße 8","9524 Villach-St. Magdalen,","Austria | Österreich",NA,NA,NA,"http://www.ad2v.at",NA,"Technologiepark, Europastraße 8
9524 Villach-St. Magdalen, Kärnten , Österreich",13.888609,46.610762,"europastraße 11, 9524 villach, austria","Andere"
"V-Trion GmbH","2015","4",NA,"Schwefelbadstraße 2
6845 Hohenems","x","Körperschutz","Schwefelbadstraße 2
6845 Hohenems""","Schwefelbadstraße 2","6845 Hohenems""","Austria | Österreich",NA,NA,NA,"http://www.grabher-group.at/de/seiten/v-trion-textile-research-gmbh_4",NA,"Schwefelbadstraße 2
6845 Hohenems"" , Österreich",9.6718318,47.34996,"schwefelbadstraße 2, 6845 hohenems, austria","Personal-Ausrüstung"
"Madritsch Waffentechnik",NA,"n.v.",NA,"St. Martinerstrasse 104, 9500 Vilach","x",NA,"St. Martinerstrasse 104, 9500 Vilach","St. Martinerstrasse 104","9500 Vilach","Austria | Österreich",NA,NA,NA,"http://www.madritsch.eu",NA,"St. Martinerstrasse 104, 9500 Vilach , Österreich",13.824369,46.6235756,"st. martiner str. 104, 9500 villach, austria","Waffen & Munition"
"M-Tech Systems","2017","26",NA,"Waidmannsdorferstraße 83,
9020 Klagenfurt am Wörthersee","x","Flugsimulatorkomponenten","Waidmannsdorferstraße 83,
9020 Klagenfurt am Wörthersee","Waidmannsdorferstraße 83","9020 Klagenfurt am Wörthersee","Austria | Österreich",NA,NA,NA,"http://www.mt-sys.at/en/reference-projects-en/laser-lens-assembly/mod-mechanical-optical-devices/",NA,"Waidmannsdorferstraße 83,
9020 Klagenfurt am Wörthersee , Österreich",14.2926904,46.6126743,"waidmannsdorfer str. 83, 9020 klagenfurt am wörthersee, austria","Andere"
"Plansee","2017","1318","2017/18: 372,32 Mio. EUR","Metallwerk Plansee-Straße 71
6600 Reutte","x","Komponenten für Panzermunition, zweites Werk in Liezen (Stmk)","Metallwerk Plansee-Straße 71,
6600 Reutte","Metallwerk Plansee-Straße 71
6600 Reutte","6600 Reutte","Austria | Österreich",NA,NA,NA,"https://www.plansee.com/de/ueber-uns/geschaeftsfelder/luftfahrt-und-verteidigungsindustrie.html",NA,"Metallwerk Plansee-Straße 71,
6600 Reutte , Österreich",10.7420451,47.4935097,"metallwerk-plansee-straße 71, 6600 breitenwang, austria","Andere"
NA,NA,"n.v.",NA,NA,NA,NA,NA,NA,NA,NA,NA,NA,NA,NA,NA,"NA , Österreich",13.9723665,48.025854,"upper austria, austria",NA
"3D Elements GmbH","2015","8",NA,"Sparkassenplatz 5
6020 Innsbruck, Tirol","x","3D-Fotostudios, 3D-Datenverarbeitung","Sparkassenplatz 5, 6020 Innsbruck","Sparkassenplatz 5","6020 Innsbruck","Austria | Österreich","Dominik Leitner","T +43 / 664 / 121 98 88","E service@3delements.com","www.3delements.com",15,"Sparkassenplatz 5, 6020 Innsbruck , Österreich",11.3943177,47.2661034,"sparkassenpl. 5, 6020 innsbruck, austria","Andere"
"Airborne Technologies GmbH","2017","45",NA,"Gloriettegasse 1/3
1130 Wien","x","Fernerkundungssensoren, ISR-Lösungen, Geodatenverarbeitung","Gloriettegasse 1/3
1130 Wien","Viktor Lang-Straße 82700 Wiener Neustadt","Austria | Österreich",NA,NA,"T +43 / 2622 / 347 18 200","E office@airbornetechnologies.at","www.airbornetechnologies.at",18,"Gloriettegasse 1/3
1130 Wien , Österreich",16.2989071,48.1805405,"gloriettegasse 1, 1130 wien, austria","Andere"
"AIT Austrian Institute of Technology","2016 (Gruppe)","969","2016 (Gruppe): 45,87 Mio. EUR","Giefinggasse 4
1210 Wien","x","CBRN-Schutz, Sicherheitssysteme, APT-Abwehr, AI, Entwicklung von AIT Cyber Range, Safety und Security Design, Post Quantum-Verschlüsselung, Blockchain","Giefinggasse 4, 1210 Wien","Giefinggasse 4","1210 Wien","Austria | Österreich","Michael Mürling","T +43 / 50550 / 4126","E michael.muerling@ait.ac.at","www.ait.ac.at",19,"Giefinggasse 4, 1210 Wien , Österreich",16.4266624,48.2693843,"giefinggasse 4, 1210 wien, austria","Andere"
"Atlas Aerospace Elektronische Geräte Vertriebs GmbH","2016","8",NA,"Muthgasse 109
1190 Wien","x","Beratung bei Wehr- und Sicherheitstechnik, Unternehmensstrategie","Muthgasse 109, 1190 Wien ","Muthgasse 109","1190 Wien ","Austria | Österreich","Philipp Muchitsch","T +43 / 1 / 320 23 88","E atlas@atlasaero.at","www.atlasaerospace.at",22,"Muthgasse 109, 1190 Wien  , Österreich",16.3695819,48.2529738,"muthgasse 109, 1190 wien, austria","Personal-Ausrüstung"
"AUSTRIALPIN GMBH","2016","12",NA,"Industriezone C 2a
6166 Fulpmes, Tirol","x","Tactical & Safety, Flugsport und Bergsport","Industriezone C 2a, 6166 Fulpmes","Industriezone C 2a","6166 Fulpmes","Austria | Österreich","Robert Span","T +43 / 5225 / 652 48","E robert.span@austrialpin.at","www.austrialpin.at",25,"Industriezone C 2a, 6166 Fulpmes , Österreich",11.3483091,47.1521124,"fulpmes, austria","Andere"
"AVL List GmbH","2016 (Gruppe)","9115","2016 (Gruppe): 1.385,09 Mio. EU","Hans-List-Platz 1
8020 Graz, Steiermark","x","Entwicklung, Simulation und Prüftechnik von Antriebssystemen für PKW, LKW, Großmotoren und Spezialanwendungen","Hans-List-Platz 1, 8020 Graz","Hans-List-Platz 1","8020 Graz","Austria | Österreich",NA,"T +43 / 316 / 787 - 0","E info@avl.com","www.avl.com",27,"Hans-List-Platz 1, 8020 Graz , Österreich",15.425109,47.0778748,"hans-list-platz 1, 8020 graz, austria","Andere"
"BDP Ballistic & Defence Products ","2015","2",NA,"Karlauergürtel 29 - 31
8020 Graz, Steiermark","x","Beratung, Vermittlung und Handel mit Defence-, Dual Use- und Sicherheitsprodukten, v.a. Instandhaltung, Feldlager, Katastrophenschutz","Karlauergürtel 29-31, 8020 Graz","Karlauergürtel 29-31","8020 Graz","Austria | Österreich","Kurt Wiederwohl","T +43 / 316 / 714 591","E k.wiederwohl@bdp.at","www.bdp.at",28,"Karlauergürtel 29-31, 8020 Graz , Österreich",15.434229,47.0577884,"karlauergürtel 29, 8020 graz, austria","Fahrzeuge & Zubehör"
"bit media e-solutions GmbH","2017","49",NA,"Kärntner Straße 337
8054 Graz, Steiermark","x","e-Learning-Systeme","Kärntner Strasse 337, 8054 Graz","Kärntner Strasse 337","8054 Graz","Austria | Österreich","Stefan Düss","T +43 / 664 / 619 97 05","E stefan.duess@bitmedia.at","www.bitmedia.at",31,"Kärntner Strasse 337, 8054 Graz , Österreich",15.4049969,47.0294469,"kärntner str. 337, 8054 graz, austria","IT"
"Carbon-solutions Hintsteiner GmbH","2017","19",NA,"Kirchengasse 1
8644 Kindberg, Steiermark","x","Carbon-Faser Technologie in Prototypen- und Kleinserienfertigung","Kirchengasse 1, 8644 Mürzhofen","Kirchengasse 1","8644 Mürzhofen","Austria | Österreich","Martin Hintsteiner","T +43 / 3864 / 23 36","E office@hintsteiner.at","www.hintsteiner-group.com",33,"Kirchengasse 1, 8644 Mürzhofen , Österreich",15.3955771,47.4848094,"kirchengasse 1, 8644 mürzhofen, austria","Fahrzeuge & Zubehör"
"CGS Trading Import-Export GmbH","2015","2",NA,"Lichtenauergasse 7/12
1020 Wien","x","gepanzerte Fahrzeuge, ABC-Schutz, Isolations- und Luftfiltersysteme, mobile Krankenhäuser und Photovoltaik, Dual Use Goods","Lichtenauergasse 7/12, 1020 Wien","Lichtenauergasse 7/12","1020 Wien","Austria | Österreich","Christine Grassl","T +43 / 1 / 581 05 06 - 30","E grassl@cgs-trading.com","www.cgs-trading.com",34,"Lichtenauergasse 7/12, 1020 Wien , Österreich",16.3892342,48.2146418,"lichtenauergasse 7, 1020 wien, austria","Personal-Ausrüstung"
"Desoma GmbH","2017","8",NA,"Jakominiplatz 12
8010 Graz, Steiermark","x","Datenprofiling zur Vorbeugung von Cyberkriminaltiät","Jakominiplatz 12, 8010 Graz","Jakominiplatz 12","8010 Graz","Austria | Österreich","Johann Preinsberger | Adolf Schmidthuber","T +43 / 316 / 810 - 330","E info4ip@desoma.org","www.desoma.org",40,"Jakominiplatz 12, 8010 Graz , Österreich",15.4442351,47.0674808,"jakominipl. 12, 8010 graz, austria","Andere"
"Dlouhy GmbH","2016","103","2017: 25,23 Mio. EUR","Königstetter Straße 163 A
3430 Tulln, Niederösterreich","x","Spezialfahrzeuge im Rettungswesen","Königstetter Straße 163a, 3430 Tulln","Königstetter Straße 163a","3430 Tulln","Austria | Österreich","Martin Dlouhy","T +43 / 2272 / 631 00","E tulln@dlouhy.at","www.dlouhy.at",43,"Königstetter Straße 163a, 3430 Tulln , Österreich",16.0791409,48.3213979,"königstetter str. 163a, 3430 tulln an der donau, austria","Andere"
"Edelweiss Industries / Edelweiss Adventure GmbH",NA,"n.v.",NA,"Blumauerstraße 200A
2601 Sollenau, Niederösterreich","x","(Handfeuer-)Waffen, Munition, Infanterieausrüstung und ballistischen Systeme","Blumauerstraße 200A, 2601 Sollenau","Blumauerstraße 200A","2601 Sollenau","Austria | Österreich","Andreas Steindl","T +43 / 2628 / 483 49","E office@edelweiss.world","www.edelweiss.world",45,"Blumauerstraße 200A, 2601 Sollenau , Österreich",16.2805866,47.9067944,"blumauerstraße 200, 2601 sollenau, austria","Personal-Ausrüstung"
"ELMA-TECH modern technologies",NA,"n.v.",NA,"Dipl.-Ing. Herbert Steinleitner - ELMA-TECH modern technologies
Pummerinplatz 1
4490 St. Florian","x","Gefahrenbekämpfung aus Distanz: künstliche Lawinenauslösung, Flächenbrand-, Ölkatastrophen- und Insektenbekämpfung","Pummerinplatz 1, 4490 St. Florian","Pummerinplatz 1","4490 St. Florian","Austria | Österreich","Herbert Steinleitner","T +43 / 7224 / 412 65","E office@elma-tech.com","www.elma-tech.com",46,"Pummerinplatz 1, 4490 St. Florian , Österreich",14.3963255,48.2099731,"pummerinpl. 1, 4490 st. florian, austria","Andere"
"ESL Advanced Information Technology ","2017","42","2016: 7,86 Mio. EUR","Obachgasse 26
1220 Wien","x","Führungsinformationssystemen wie fernbedienbare Waffenstationen, Granatwerfer, Beobachtungsfahrzeuge und C4I Systeme","Obachgasse 26, 1220 Wien","Obachgasse 26","1220 Wien","Austria | Österreich",NA,"T +43 / 1 / 256 24 53 - 0","E office@eslait.at","www.eslait.at",48,"Obachgasse 26, 1220 Wien , Österreich",16.4625505,48.2582287,"obachgasse 26, 1220 wien, austria","Fahrzeuge & Zubehör"
"eurofunk KAPPACHER GmbH","2017","378","2016/17: 44,86 Mio. EUR","Eurofunkstraße 1-8
5600 St.Johann im Pongau, Salzburg","x","Leitstellen und Notrufzentralen","eurofunk-Straße 1-8, 5600 St. Johann im Pongau","eurofunk-Straße 1-8","5600 St. Johann im Pongau","Austria | Österreich",NA,"T +43 57 112 - 0","E office@eurofunk.com","www.eurofunk.com",49,"eurofunk-Straße 1-8, 5600 St. Johann im Pongau , Österreich",13.2008334,47.343528,"eurofunkstraße 1/8, 5600 plankenau, austria","Andere"
"fireKRAFT AUSTRIA",NA,"n.v.",NA,NA,"x","Ausrüstung für Luft-, Land- und maritime Spezialeinsatzkräfte","Industriestraße 5, 4061 Pasching","Industriestraße 5","4061 Pasching","Austria | Österreich","Thomas Kraft","T +43 / 7229 / 662 40 - 0","E office@firekraft.at","www.firekraft.at",53,"Industriestraße 5, 4061 Pasching , Österreich",14.232985,48.245667,"industriestraße 5, 4061, austria","Andere"
"Flex Althofen","2017","609","2016/17: 162,61 Mio. EUR","Friesacher Straße 3
9330 Althofen, Kärnten","x","Design-, Produktions- und Logistiklösungen","Friesacher Straße 3, 9330 Althofen","Friesacher Straße 3","9330 Althofen","Austria | Österreich","Günther Steger","T +43 / 4262 / 26 44 - 1611","E guenther.steger@flex.com","www.flex.com",54,"Friesacher Straße 3, 9330 Althofen , Österreich",14.4645362,46.8747679,"friesacher str. 3, 9330 althofen, austria","Andere"
"Franz Achleitner GMBH","2021","16","2016/17: 47,13 Mio. EUR","Franz Achleitner-Fahrzeugbau und Reifenzentrum GMBH
Innsbruckerstraße 94
6300 Wörgl, Tirol","x","(geschützte) Logistik-, Sicherheits- und Sonderfahrzeuge","Innsbrucker Straße 94, 6300 Wörgl","Innsbrucker Straße 94","6300 Wörgl","Austria | Österreich","Franz Achleitner","T +43 / 5337 / 66 600","E office@achleitner.com","www.achleitner.com",56,"Innsbrucker Straße 94, 6300 Wörgl , Österreich",12.0491804,47.4794569,"innsbrucker str. 94, 6300 wörgl, austria","Kommunikationstechnik"
"FUXS GmbH","2015","2",NA,"Exerzierplatzstraße 85
8051 Graz, Steiermark","x","Explosionsschutz bei brennbaren und explosiven Treibstoffen und Gasen","Exerzierplatzstrasse 85, 8051 Graz","Exerzierplatzstrasse 85","8051 Graz","Austria | Österreich","Franz Stuhlbacher","T +43 / 316 / 698 778 - 10","E fs@fuxs-company.com","www.fuxs-company.com",58,"Exerzierplatzstrasse 85, 8051 Graz , Österreich",15.4107934,47.0993317,"exerzierplatzstraße 85, 8051 graz, austria","Andere"
"GD European Land Systems - Steyr GmbH","2017","120","2016: 18,99 Mio. EUR","Bleibtreustraße 2
1110 Wien","x","Radfahrzeuge, Kettenfahrzeuge, amphibische Fahrzeuge und andere Kampfsysteme sowie Artillerie und Munition","Bleibtreustraße 2, 1110 Wien","Bleibtreustraße 2","1110 Wien","Austria | Österreich","Michael Mock","T +43 / 1 / 760 64 - 0","E michael.mock@gdels.com","www.gedels.com",59,"Bleibtreustraße 2, 1110 Wien , Österreich",16.44869,48.1775,"bleibtreustraße 2, 1110 wien, austria","Fahrzeuge & Zubehör"
"GOETZLOFF Gesellschaft mbH","2016","9",NA,"Thannstraße 6
4490 St. Florian bei Linz, Oberösterreich","x","impermeabler ABC Schutz (Anzüge, Overalls, Verwundeten- und Transportsäcke, Abdeckungen für Waffensysteme, Mobile Transportsysteme für infektiöse Patienten)","Thannstrasse 6, 4490 St.Florian","Thannstrasse 6","4490 St.Florian","Austria | Österreich","Joachim H. Goetzloff","T +43 / 732 / 384 027","E office@goetzloff.at","www.goetzloff.at",61,"Thannstrasse 6, 4490 St.Florian , Österreich",14.379309,48.2047142,"thann str. 6, 4490 st. florian, austria","Andere"
"HAST GmbH","2016","0",NA,"HAST Heeresausrüstung & Sicherheitstechnik GmbH
Furt 43
4754 Andrichsfurt, Oberösterreich","x","Plattform für Behördengeschäfte mit dem Innen- und Verteidigungsministerium","Furt 43, 4754 Andrichsfurt","Furt 43","4754 Andrichsfurt","Austria | Österreich","Gottfried Koger","T +43 / 699 / 158 880 39","E g.koger@hast.cc","www.hast.cc",63,"Furt 43, 4754 Andrichsfurt , Österreich",13.5174359,48.2543326,"furt 43, 4754 andrichsfurt, austria","Fahrzeuge & Zubehör"
"HICO Group GmbH","2017","2",NA,"Salesianergasse 4 Top 4
1030 Wien","x","IT-Lösungen, IPS-Dienstleistungen","Salesianergasse 4 / Top 4, 1030 Wien","Salesianergasse 4 / Top 4","1030 Wien","Austria | Österreich",NA,"T +43 / 1 / 890 7918 - 0","E sales@HICO.com","www.HICO.com",64,"Salesianergasse 4 / Top 4, 1030 Wien , Österreich",16.3807009,48.2007558,"salesianergasse 4/top 4, 1030 wien, austria","IT"
"HIRTENBERGER DEFENCE EUROPE GmbH","2018","90",NA,"Leobersdorfer Straße 31-33
2552 Hirtenberg, Niederösterreich","x","Mörsermunition und Waffensysteme, sowie optische Instrumente und Feuerleitsysteme","Leobersdorferstraße 31-33, 2256 Hirtenberg","Leobersdorferstraße 31-33","2256 Hirtenberg","Austria | Österreich","Roland Pittracher","T +43 / 2256 / 811 84 - 0",NA,"hds.hirtenberger.com",65,"Leobersdorferstraße 31-33, 2256 Hirtenberg , Österreich",16.2473385,47.9412614,"leobersdorferstraße 31, 2525, austria","Andere"
"HPI High Pressure Instrumentation","2016","12",NA,"Überfuhrgasse 37
8020 Graz, Steiermark","x","Messeinrichtungen zur Evaluierung von Ballistik und Schutzausrüstung wie z.B. Schutzwesten, Helme, Panzerglas/-stahl","Ueberfuhrgasse 37, 8010 Graz","Ueberfuhrgasse 37","8010 Graz","Austria | Österreich","Christian Holzer (Sales & Marketing)","T +43 / 316 / 680 470 0","E info@hpi-gmbh.com","www.hpi-gmbh.com",67,"Ueberfuhrgasse 37, 8010 Graz , Österreich",15.4191019,47.0905388,"überfuhrgasse 37, 8020 graz, austria","Andere"
"J. Blaschke Wehrtechnik GmbH","2016","4",NA,"Wienerbergstraße 42-44
1120 Wien","x","CBRN-Schutz: Schutzbekleidung, Verletztenbergesäcke, Rucksäcke, Wassertank, Dekontaminations-Auffangwannen","Wienerbergstrasse 42-44, 1120 Wien","Wienerbergstrasse 42-44","1120 Wien","Austria | Österreich","Volker Haager","T +43 / 1 / 810 09 09","E office@blaschke.com","www.blaschke.com",71,"Wienerbergstrasse 42-44, 1120 Wien , Österreich",16.3286644,48.1721565,"wienerbergstraße 42-44, 1120 wien, austria","Personal-Ausrüstung"
"JOANNEUM RESEARCH - DIGITAL","2017","445","2016: 7,67 Mio. EUR (Rumpfjahr VII-XII)","JOANNEUM RESEARCH Forschungsgesellschaft mbH
Leonhardstraße 59
8010 Graz, Steiermark","x","Schutz kritischer Infrastrukrut (Verkehr, Energieversorgung, Industrie) vor physischen und digitalen Angriffen","Leonhardstraße 59, 8010 Graz","Leonhardstraße 59","8010 Graz","Austria | Österreich","Maria Fellner","T +43 / 316 / 876 1637","E sales.digital@joanneum.at","www.joanneum.at/digital",72,"Leonhardstraße 59, 8010 Graz , Österreich",15.4549304,47.0739965,"leonhardstraße 59, 8010 graz, austria","Personal-Ausrüstung"
"Kapsch BusinessCom AG","2017","984","2016/17: 279,99 Mio. EUR","Wienerbergstraße 53
1120 Wien","x","Berater, Systemlieferant und Dienstleistungsanbieter für ICT-Infrastruktur, smarte Gebäude-, Medien- und Sicherheitstechnik sowie Outsourcing-Services","Wienerbergstraße 53, 1120 Wien","Wienerbergstraße 53","1120 Wien","Austria | Österreich",NA,"T +43 / 50 / 811 0","E kbc.office@kapsch.net","www.kapsch.net",74,"Wienerbergstraße 53, 1120 Wien , Österreich",16.3312523,48.1714531,"wienerbergstraße 53, 1120 wien, austria","IT"
"Lenzing AG","2017 (Gruppe)","6308","2017 (Gruppe): 2.259,40 Mio. EUR","Werkstraße 2
4860 Lenzing (OÖ), Oberösterreich","x","Hygieneprodukte, Schutzbekleidung","Werkstraße 2, 4860 Lenzing","Werkstraße 2","4860 Lenzing","Austria | Österreich","Oliver Spöcker","T +43 / 7672 / 701 35 05","E o.spoecker@lenzing.com","www.lenzing.com",78,"Werkstraße 2, 4860 Lenzing , Österreich",13.6153359,47.9753394,"werkstraße 2, 4860 lenzing, austria","Andere"
"LieberLieber Software","2016","19",NA,"Handelskai 340 Top 5
1020 Wien","x","Model Engineering","Handelskai 340, 1020 Wien","Handelskai 340","1020 Wien","Austria | Österreich","Konrad Wieland","T +43 / 662 / 906 00 – 20 17","E konrad.wieland@lieberlieber.com","www.lieberlieber.com",79,"Handelskai 340, 1020 Wien , Österreich",16.4276043,48.2089014,"handelskai 340, 1020 wien, austria","IT"
"LPV gmbh","2015","1",NA,"Industriestraße I Nr. 4
2620 Neunkirchen, Niederösterreich","x","LPV: Push to Talk Satcom, Smartphoneverschlüsselung; Satcom liefert Daten- und Sprachkommunikation; 9K ballistics entwickelt ballistische Möbel und mobile Schutzwände","Industriestr. I 4, 2620 Neunkirchen","Industriestr. I 4","2620 Neunkirchen","Austria | Österreich",NA,"T +43 / 660 / 711 77 77","E uplink@satellite-telecom.net | operations@9kballistics.at","satellite-telecom.net | 9kballistics.at",81,"Industriestr. I 4, 2620 Neunkirchen , Österreich",16.0667163,47.7260877,"industriestraße, 2620, austria","Andere"
"PALFINGER EMEA GmbH Defence Solutions",NA,"n.v.",NA,NA,"?","Be- und Entladung von Gütern","Kapellenstraße 18, 5211 Friedburg/Lengau","Kapellenstraße 18","5211 Friedburg/Lengau","Austria | Österreich","Franz Thaller | Josef Fenninger | Robert Stengel","T +43 / 7746 / 22 81 - 0","E govsales@palfinger.com","www.palfinger.com",89,"Kapellenstraße 18, 5211 Friedburg/Lengau , Österreich",13.2236018,48.0085938,"kapellenstraße 18, 5211 lengau, austria","Andere"
"Raetia Technologies GmbH","2016","0",NA,"Ladestraße 8
6370 Kitzbühel, Tirol","x","IT-Beratung, Network Consulting, Security Audits, Hard- und Software","Ladestrasse 8, 6370 Kitzbühel","Ladestrasse 8","6370 Kitzbühel","Austria | Österreich","Nikolaus Kramheller","T +43 / 676 / 397 02 21","E nk@raetia-tec.at","www.raetia-tec.at",95,"Ladestrasse 8, 6370 Kitzbühel , Österreich",12.3925407,47.4492375,"6370 kitzbuhel, austria","Andere"
"Raytech VertriebsgmbH","2018","27",NA,"Johann Steinböck-Straße 12
2345 Brunn am Gebirge, Niederösterreich","x","elektrische Systeme und Verkabelungsmaterial: Kabelbäume, Battle Panels, Verbindungsstecker, Leitungen in Komposit und Aluguss","Johann Steinböck-Straße 12, 2345 Brunn am Gebirge","Johann Steinböck-Straße 12","2345 Brunn am Gebirge","Austria | Österreich",NA,"T +43 / 2236 / 90 300","E sales@raytech-group.com","raytech-group.com",96,"Johann Steinböck-Straße 12, 2345 Brunn am Gebirge , Österreich",16.308713,48.1078929,"johann steinböck-straße 12, 2345 brunn am gebirge, austria","Kommunikationstechnik"
"REPUCO Unternehmensberatung GmbH","2017","4",NA,"Frankenberggasse 9/5
1040 Wien","x","Strategieberatung","Frankenberggasse 9/5, 1040 Wien","Frankenberggasse 9/5","1040 Wien","Austria | Österreich","Wolfgang Gattringer","T +43 / 1 / 886 56 29","E office@repuco.at","www.repuco.at",97,"Frankenberggasse 9/5, 1040 Wien , Österreich",16.3685488,48.1973111,"frankenberggasse 9, 1040 wien, austria","Andere"
"RESCO Consulting GmbH","2015","3",NA,"Hauptstraße 151
8141 Unterpremstätten, Steiermark","x","Vertrieb eines schusssicheren Betonsteins","Hauptstraße 151, 8141 Premstätten","Hauptstraße 151","8141 Premstätten","Austria | Österreich",NA,"T +43 / 3136 / 529 89","E office@resco.cc","www.resco.cc",98,"Hauptstraße 151, 8141 Premstätten , Österreich",15.4037872,46.9708389,"hauptstraße 151, 8141 unterpremstätten, austria","Andere"
"RESSENIG Fahrzeugbau GmbH","2016","132","2013/14: 17,47 Mio. EUR","St. Martiner Straße 124
9500 Villach, Kärnten","x","Schutzsysteme für Fahrzeuge","St. Martinerstraße 124, 9500 Villach","St. Martinerstraße 124","9500 Villach","Austria | Österreich",NA,"T +43 / 4242 / 50 10 – 0","E office@ressenig.at","www.ressenig.at",99,"St. Martinerstraße 124, 9500 Villach , Österreich",13.8219158,46.6252143,"st. martiner str. 124, 9500 villach, austria","Personal-Ausrüstung"
"Rohde & Schwarz Österreich GesmbH","2017","36","2016/17: 55,55 Mio. EUR","Technologiestraße 10/Gebäude E
1120 Wien","x","Cybersecurity und Defense, Hard- und Software-Lösungen, Messtechnik","Technologiestraße 10 I Gebäude E, 1120 Wien","Technologiestraße 10 I Gebäude E","1120 Wien","Austria | Österreich","Günther Topil","T +43 / 1 / 602 61 41 - 0","E rs-austria@rohde-schwarz.com","www.rohde-schwarz.com",102,"Technologiestraße 10 I Gebäude E, 1120 Wien , Österreich",16.3337591,48.1687415,"gebäude e, technologiestraße 10, 1120 wien, austria","Andere"
"Rosenbauer International AG","2016 (Gruppe)","3312","2016 (Gruppe): 870,81 Mio. EUR","Paschinger Str. 90
4060 Leonding, Oberösterreich","x","Fahrzeuge, Löschtechnik, Ausrüstung und Telematiklösungen für Feuerwehren sowie vorbeugende Brandschutz","Paschinger Straße 90, 4060 Leonding","Paschinger Straße 90","4060 Leonding","Austria | Österreich",NA,"T +43 / 732 / 67 94 - 0","E office@rosenbauer.com","www.rosenbauer.com",104,"Paschinger Straße 90, 4060 Leonding , Österreich",14.2434823,48.2713893,"paschinger str. 90, 4060 leonding, austria","Personal-Ausrüstung"
"RUAG Ammotec Austria GmbH","2018","17",NA,"Walter Business Park,Str. 7,Obj. 58D/1
2355 Wiener Neudorf, IZ NÖ-Süd, Niederösterreich","x","kleinkalibrige Standard- und Spezialmunition","IZ NÖ-Süd, Straße 7, Objekt 58D, 2355 Wiener Neudorf","IZ NÖ-Süd, Straße 7, Objekt 58D","2355 Wiener Neudorf","Austria | Österreich","Georg Coester","T +43 / 2236 / 677 735 - 0","E info.at.ammotec@ruag.com","www.ruag-ammotec.com",105,"IZ NÖ-Süd, Straße 7, Objekt 58D, 2355 Wiener Neudorf , Österreich",16.333152,48.067192,"iz nö-süd straße 14 7, 2355 wiener neudorf, austria","Personal-Ausrüstung"
"SAIL LABS Technology","2017","22",NA,"Mariannengasse 14
1090 Wien","x","Sprach- und Multimediaverarbeitung: Datengewinnung, Visual Analytics, Reporting Tools, Sprach- und Sprechererkennung, Polaritätsanalyse, Eigennamen- und Themenerkennung, Texterkennung, Ontologien, Social Media Analytics","Mariannengasse 14, 1090 Wien","Mariannengasse 14","1090 Wien","Austria | Österreich",NA,"T +43 / 1 / 580 95 - 0","E info4speech@sail-labs.com","www.sail-labs.com",108,"Mariannengasse 14, 1090 Wien , Österreich",16.3483915,48.2162468,"mariannengasse 14, 1090 wien, austria","Kommunikationstechnik"
"Sattler group",NA,"n.v.",NA,NA,"?","militärische Schutztextilien: Markisen, Planen und technische Textilien","Sattlerstraße 45, 8077 Gössendorf","Sattlerstraße 45","8077 Gössendorf","Austria | Österreich","Erwin Kollegger","T +43 / 316 / 4104 - 0","E mail@sattler-global.com","www.sattler.com",109,"Sattlerstraße 45, 8077 Gössendorf , Österreich",15.4691376,47.0095082,"sattlerstraße 45, 8041 thondorf, austria","Personal-Ausrüstung"
"Schiebel Elektronische Geräte GmbH","2016","225","2016: 43,99 Mio. EUR","Margaretenstrasse 112
1050 Wien","x","Minensuchgeräte, unbemannte Helikopter, Composites Technologie","Margaretenstraße 112, 1050 Wien","Margaretenstraße 112","1050 Wien","Austria | Österreich",NA,"T +43 / 1 / 546 26 0","E info@schiebel.net","www.schiebel.net",114,"Margaretenstraße 112, 1050 Wien , Österreich",16.3540467,48.1888586,"margaretenstraße 112, 1050 wien, austria","Personal-Ausrüstung"
"SIMGUN GmbH",NA,"n.v.",NA,"Ringstraße 32/2
6840 Götzis, Vorarlberg","x","Duellsimulatoren","Ringstrasse 32/2, 6840 Götzis","Ringstrasse 32/2","6840 Götzis","Austria | Österreich","Patrick Riedesser","T +43 / 5523 / 510 07","E office@simgun.com","www.simgun.com",120,"Ringstrasse 32/2, 6840 Götzis , Österreich",9.6411335,47.333621,"ringstraße 32, 6840 götzis, austria","Personal-Ausrüstung"
"smp aviation","2016","4",NA,"SMP Consulting & Handel GmbH
Am Leopoldsgrund 8
8055 Graz, Steiermark","x","Satellitenkommunikationssystem für die Luftfahrt","Plüddemanngasse 67a, 8010 Graz","Plüddemanngasse 67a","8010 Graz","Austria | Österreich","Manfred Scheiring","T +43 / 699 / 142 414 21 ","E sales@smp-aviation.com","www.smp-aviation.com",121,"Plüddemanngasse 67a, 8010 Graz , Österreich",15.4659304,47.0637624,"plüddemanngasse 67a, 8010 graz, austria","Andere"
"Spintower KG",NA,"n.v.",NA,"Teslastraße 4a
8074 Raaba-Grambach, Steiermark","x","hochverschlüsselte Videokommunikationssystem, live Lageüberblick, bidirektionale Kommunikation (Sprache, Video, Daten) und Lokalisierung in der Kommandozentrale","Teslastrasse 4a, 8074 Grambach","Teslastrasse 4a","8074 Grambach","Austria | Österreich","Mario Schwaiger","T +43 / 316 / 214 273 - 0","E office@spintower.eu","www.darvin.live",122,"Teslastrasse 4a, 8074 Grambach , Österreich",15.5004044,47.0186142,"teslastraße 4, 8074 grambach, austria","Andere"
"St. Pölten University of Applied Sciences",NA,"n.v.",NA,NA,"?","IT-Security-Maßnahmen, -Verfahren und -Lösungen","Matthias Corvinus-Strasse 15, 3100 St. Pölten","Matthias Corvinus-Strasse 15","3100 St. Pölten","Austria | Österreich","Ernst Piller","T +43 / 2742 / 313 228 636","E ernst.piller@fhstp.ac.at","www.fhstp.ac.at | isf.fhstp.ac.at",123,"Matthias Corvinus-Strasse 15, 3100 St. Pölten , Österreich",15.6320474,48.213797,"matthias corvinus-straße 15, 3100 st. pölten, austria","IT"
"STEYR MOTORS GmbH","2016","185","2016: 36,19 Mio. EUR","Im Stadtgut B 1
4407 Steyr, Oberösterreich","x","Hochleistungsdieselmotoren, Aggregate und diesel-elektrischen Antriebslösungen","Im Stadtgut B1, 4407 Steyr","Im Stadtgut B1","4407 Steyr","Austria | Österreich",NA,"T +43 / 7252 / 222 - 0","E office@steyr-motors.com","www.steyr-motors.com",125,"Im Stadtgut B1, 4407 Steyr , Österreich",14.4294491,48.072758,"im stadtgut zone b 1, 4407 steyr, austria","Andere"
"SVI Austria GmbH","2017","250","2014/15: 76,62 Mio. EUR","Frauentaler Straße 100
8530 Deutschlandsberg, Steiermark","x","elektronische Baugruppen, Komplettgeräte, Kabel und Systeme","Frauentaler Straße 100, 8530 Deutschlandsberg","Frauentaler Straße 100","8530 Deutschlandsberg","Austria | Österreich","Gerold Grill","T +43 / 3462 / 68 00 - 0","E office@svi-austria.com","www.SVI-HQ.com",126,"Frauentaler Straße 100, 8530 Deutschlandsberg , Österreich",15.2332067,46.8200923,"frauentaler str. 100, 8530 deutschlandsberg, austria","Kommunikationstechnik"
"T3K-Forensics GmbH","2016","0",NA,"Jacquingasse 51
1030 Wien","x","Mobilforensik: Service- und Schulungen für nationale und internationale Strafverfolgungsbehörden, Mobilforensik-Lösungen, Gerichtsgutachten, Eigenentwicklung von Mobilforensik-Software, automatisierte Analytics-Lösungen","Jacquingasse 51, Top 3, 1030 Wien","Jacquingasse 51, Top 3","1030 Wien","Austria | Österreich","Felix Klier","T +43 / 1 / 929 15 91 60","E office@t3k-forensics.com","www.t3k-forensics.com",128,"Jacquingasse 51, Top 3, 1030 Wien , Österreich",16.3845884,48.1894594,"jacquingasse 51/top 3, 1030 wien, austria","IT"
"Thales","2016","308","2016: 87,72 Mio. EUR","Handelskai 92
1200 Wien","x","Transportaktivitäten, Schutz von Eisenbahnunternehmen vor Cyber Vorfällen, Flugsicherungssystem, Nachtsichtgeräte, Kommunikations- und Radarlösungen","Handelskai 92, 1200 Wien","Handelskai 92","1200 Wien","Austria | Österreich","Christian Loew","T +43 / 664 / 850 13 44","E christian.loew@thalesgroup.com","www.thalesgroup.com/austria",130,"Handelskai 92, 1200 Wien , Österreich",16.3850288,48.24236,"handelskai 92, 1200 wien, austria","Fahrzeuge & Zubehör"
"Trixy Aviation Products GmbH","2017","0",NA,"Eschbühel 10 F
6850 Dornbirn, Vorarlberg","x","Leichtflugzeuge und Tragschrauber mit Echtzeit-Überwachungssystem mit Radar, Kameras und direkter
 Datenübertragung, Up-/Downlink Techniken","Eschbuehel 10 F, 6850 Dornbirn","Eschbuehel 10 F","6850 Dornbirn","Austria | Österreich","Rainer Farrag","T +43 / 664 / 396 86 05","E rainer@trixyaviation.com","www.trixyaviation.com",131,"Eschbuehel 10 F, 6850 Dornbirn , Österreich",9.7580782,47.4279387,"eschbühel 10f, 6850 dornbirn, austria","Andere"
"TÜV AUSTRIA CERT GMBH","2016","60",NA,"Deutschstraße 10
1230 Wien","x","Prüfung, Inspektion, Zertifizierung, Aus- und Weiterbildung","Deutschstraße 10, 1230 Wien","Deutschstraße 10","1230 Wien","Austria | Österreich",NA,"T +43 / 504 54 - 0","E office@tuv.at","www.tuv.at",132,"Deutschstraße 10, 1230 Wien , Österreich",16.3569001,48.1417282,"deutschstraße 10, 1230 wien, austria","IT"
"Valentin Tusch GmbH Sonderfahrzeugbau","2016","9",NA,"Plescherken 18
9074 Keutschach, Kärnten","x","Sonderschutzfahrzeuge für Personenschutz, Geldtransporter und taktischen Fahrzeuge, Antiminensitze, Add-on Kits zum ballistischen Schutz für Hubschrauber","Plescherken 18, 9074 Keutschach","Plescherken 18","9074 Keutschach","Austria | Österreich",NA,"T +43 / 4273 / 210 07","E valentin.tusch@security-car.com","www.security-car.com",134,"Plescherken 18, 9074 Keutschach , Österreich",14.1469539,46.586256,"plescherken 18, 9074 plescherken, austria","Personal-Ausrüstung"
"Viewpointsystem Gmbh","2017","21",NA,"Franz-Josefs-Kai 47/3. OG
1010 Wien","x","Eye-Tracking-Systeme, Blickanalyse, Audio- & Video Live Streaming","Franz-Josefs-Kai 47, 1010 Wien","Franz-Josefs-Kai 47","1010 Wien","Austria | Österreich",NA,"T +43 / 1 / 208 90 90","E office@viewpointsystem.com","viewpointsystem.com",136,"Franz-Josefs-Kai 47, 1010 Wien , Österreich",16.3721513,48.2153546,"franz-josefs-kai 47, 1010 wien, austria","Andere"
"Zoerkler Gears GmbH & Co KG","2017","91",NA,"Friedrich Zoerkler Straße 1
7093 Jois, Burgenland","x","Getriebe, Antriebssysteme, Präzisionsteile, Stirn- und Kegelräder","Friedrich Zoerkler Strasse 1, 7093 Jois","Friedrich Zoerkler Strasse 1","7093 Jois","Austria | Österreich","Bernhard Wagner","T +43 / 2160 / 204 00","E office@zoerkler.at","www.zoerkler.at",141,"Friedrich Zoerkler Strasse 1, 7093 Jois , Österreich",16.8003493,47.9653164,"friedrich zoerkler str. 1, 7093 jois, austria","Andere"
"M-Tech Systems","2017","26",NA,"Waidmannsdorferstraße 83,
9020 Klagenfurt am Wörthersee","x","Flugsimulatorkomponenten","Waidmannsdorferstraße 83,
9020 Klagenfurt am Wörthersee","Waidmannsdorferstraße 83","9020 Klagenfurt am Wörthersee","Austria | Österreich",NA,NA,NA,"http://www.mt-sys.at/en/reference-projects-en/laser-lens-assembly/mod-mechanical-optical-devices/",NA,"Waidmannsdorferstraße 83,
9020 Klagenfurt am Wörthersee , Österreich",14.2926904,46.6126743,"waidmannsdorfer str. 83, 9020 klagenfurt am wörthersee, austria",NA
"Atlas Aerospace Elektronische Geräte Vertriebs GmbH","2016","8",NA,"Muthgasse 109
1190 Wien","x","Beratung bei Wehr- und Sicherheitstechnik, Unternehmensstrategie","Muthgasse 109, 1190 Wien ","Muthgasse 109","1190 Wien ","Austria | Österreich","Philipp Muchitsch","T +43 / 1 / 320 23 88","E atlas@atlasaero.at","www.atlasaerospace.at",22,"Muthgasse 109, 1190 Wien  , Österreich",16.3695819,48.2529738,"muthgasse 109, 1190 wien, austria","Kommunikationstechnik"
"BDP Ballistic & Defence Products ","2015","2",NA,"Karlauergürtel 29 - 31
8020 Graz, Steiermark","x","Beratung, Vermittlung und Handel mit Defence-, Dual Use- und Sicherheitsprodukten, v.a. Instandhaltung, Feldlager, Katastrophenschutz","Karlauergürtel 29-31, 8020 Graz","Karlauergürtel 29-31","8020 Graz","Austria | Österreich","Kurt Wiederwohl","T +43 / 316 / 714 591","E k.wiederwohl@bdp.at","www.bdp.at",28,"Karlauergürtel 29-31, 8020 Graz , Österreich",15.434229,47.0577884,"karlauergürtel 29, 8020 graz, austria","Kommunikationstechnik"
"Carbon-solutions Hintsteiner GmbH","2017","19",NA,"Kirchengasse 1
8644 Kindberg, Steiermark","x","Carbon-Faser Technologie in Prototypen- und Kleinserienfertigung","Kirchengasse 1, 8644 Mürzhofen","Kirchengasse 1","8644 Mürzhofen","Austria | Österreich","Martin Hintsteiner","T +43 / 3864 / 23 36","E office@hintsteiner.at","www.hintsteiner-group.com",33,"Kirchengasse 1, 8644 Mürzhofen , Österreich",15.3955771,47.4848094,"kirchengasse 1, 8644 mürzhofen, austria","Andere"
"CGS Trading Import-Export GmbH","2015","2",NA,"Lichtenauergasse 7/12
1020 Wien","x","gepanzerte Fahrzeuge, ABC-Schutz, Isolations- und Luftfiltersysteme, mobile Krankenhäuser und Photovoltaik, Dual Use Goods","Lichtenauergasse 7/12, 1020 Wien","Lichtenauergasse 7/12","1020 Wien","Austria | Österreich","Christine Grassl","T +43 / 1 / 581 05 06 - 30","E grassl@cgs-trading.com","www.cgs-trading.com",34,"Lichtenauergasse 7/12, 1020 Wien , Österreich",16.3892342,48.2146418,"lichtenauergasse 7, 1020 wien, austria","Andere"
"Desoma GmbH","2017","8",NA,"Jakominiplatz 12
8010 Graz, Steiermark","x","Datenprofiling zur Vorbeugung von Cyberkriminaltiät","Jakominiplatz 12, 8010 Graz","Jakominiplatz 12","8010 Graz","Austria | Österreich","Johann Preinsberger | Adolf Schmidthuber","T +43 / 316 / 810 - 330","E info4ip@desoma.org","www.desoma.org",40,"Jakominiplatz 12, 8010 Graz , Österreich",15.4442351,47.0674808,"jakominipl. 12, 8010 graz, austria","IT"
"dormakaba Austria GmbH","2017","562","2016/17: 100,50 Mio. EUR","Ulrich-Bremi-Straße 2
3130 Herzogenburg, Niederösterreich","x","Gebäudezutrittssicherung und Betriebsdatenerfassung","Ulrich-Bremi-Straße 2, 3130 Herzogenburg","Ulrich-Bremi-Straße 2","3130 Herzogenburg","Austria | Österreich",NA,"T +43 / 2782 / 808 - 0","E office.at@dormakaba.com","www.dormakaba.at",44,"Ulrich-Bremi-Straße 2, 3130 Herzogenburg , Österreich",15.7088364,48.2824812,"ulrich-bremi strasse 2, 3130 herzogenburg, austria","IT"
"Edelweiss Industries / Edelweiss Adventure GmbH",NA,"n.v.",NA,"Blumauerstraße 200A
2601 Sollenau, Niederösterreich","x","(Handfeuer-)Waffen, Munition, Infanterieausrüstung und ballistischen Systeme","Blumauerstraße 200A, 2601 Sollenau","Blumauerstraße 200A","2601 Sollenau","Austria | Österreich","Andreas Steindl","T +43 / 2628 / 483 49","E office@edelweiss.world","www.edelweiss.world",45,"Blumauerstraße 200A, 2601 Sollenau , Österreich",16.2805866,47.9067944,"blumauerstraße 200, 2601 sollenau, austria","Andere"
"ESL Advanced Information Technology ","2017","42","2016: 7,86 Mio. EUR","Obachgasse 26
1220 Wien","x","Führungsinformationssystemen wie fernbedienbare Waffenstationen, Granatwerfer, Beobachtungsfahrzeuge und C4I Systeme","Obachgasse 26, 1220 Wien","Obachgasse 26","1220 Wien","Austria | Österreich",NA,"T +43 / 1 / 256 24 53 - 0","E office@eslait.at","www.eslait.at",48,"Obachgasse 26, 1220 Wien , Österreich",16.4625505,48.2582287,"obachgasse 26, 1220 wien, austria","Personal-Ausrüstung"
"eurofunk KAPPACHER GmbH","2017","378","2016/17: 44,86 Mio. EUR","Eurofunkstraße 1-8
5600 St.Johann im Pongau, Salzburg","x","Leitstellen und Notrufzentralen","eurofunk-Straße 1-8, 5600 St. Johann im Pongau","eurofunk-Straße 1-8","5600 St. Johann im Pongau","Austria | Österreich",NA,"T +43 57 112 - 0","E office@eurofunk.com","www.eurofunk.com",49,"eurofunk-Straße 1-8, 5600 St. Johann im Pongau , Österreich",13.2008334,47.343528,"eurofunkstraße 1/8, 5600 plankenau, austria","IT"
"Franz Achleitner GMBH","2021","16","2016/17: 47,13 Mio. EUR","Franz Achleitner-Fahrzeugbau und Reifenzentrum GMBH
Innsbruckerstraße 94
6300 Wörgl, Tirol","x","(geschützte) Logistik-, Sicherheits- und Sonderfahrzeuge","Innsbrucker Straße 94, 6300 Wörgl","Innsbrucker Straße 94","6300 Wörgl","Austria | Österreich","Franz Achleitner","T +43 / 5337 / 66 600","E office@achleitner.com","www.achleitner.com",56,"Innsbrucker Straße 94, 6300 Wörgl , Österreich",12.0491804,47.4794569,"innsbrucker str. 94, 6300 wörgl, austria","Andere"
"GD European Land Systems - Steyr GmbH","2017","120","2016: 18,99 Mio. EUR","Bleibtreustraße 2
1110 Wien","x","Radfahrzeuge, Kettenfahrzeuge, amphibische Fahrzeuge und andere Kampfsysteme sowie Artillerie und Munition","Bleibtreustraße 2, 1110 Wien","Bleibtreustraße 2","1110 Wien","Austria | Österreich","Michael Mock","T +43 / 1 / 760 64 - 0","E michael.mock@gdels.com","www.gedels.com",59,"Bleibtreustraße 2, 1110 Wien , Österreich",16.44869,48.1775,"bleibtreustraße 2, 1110 wien, austria","Andere"
"HAST GmbH","2016","0",NA,"HAST Heeresausrüstung & Sicherheitstechnik GmbH
Furt 43
4754 Andrichsfurt, Oberösterreich","x","Plattform für Behördengeschäfte mit dem Innen- und Verteidigungsministerium","Furt 43, 4754 Andrichsfurt","Furt 43","4754 Andrichsfurt","Austria | Österreich","Gottfried Koger","T +43 / 699 / 158 880 39","E g.koger@hast.cc","www.hast.cc",63,"Furt 43, 4754 Andrichsfurt , Österreich",13.5174359,48.2543326,"furt 43, 4754 andrichsfurt, austria","Personal-Ausrüstung"
"J. Blaschke Wehrtechnik GmbH","2016","4",NA,"Wienerbergstraße 42-44
1120 Wien","x","CBRN-Schutz: Schutzbekleidung, Verletztenbergesäcke, Rucksäcke, Wassertank, Dekontaminations-Auffangwannen","Wienerbergstrasse 42-44, 1120 Wien","Wienerbergstrasse 42-44","1120 Wien","Austria | Österreich","Volker Haager","T +43 / 1 / 810 09 09","E office@blaschke.com","www.blaschke.com",71,"Wienerbergstrasse 42-44, 1120 Wien , Österreich",16.3286644,48.1721565,"wienerbergstraße 42-44, 1120 wien, austria","Andere"
"JOANNEUM RESEARCH - DIGITAL","2017","445","2016: 7,67 Mio. EUR (Rumpfjahr VII-XII)","JOANNEUM RESEARCH Forschungsgesellschaft mbH
Leonhardstraße 59
8010 Graz, Steiermark","x","Schutz kritischer Infrastrukrut (Verkehr, Energieversorgung, Industrie) vor physischen und digitalen Angriffen","Leonhardstraße 59, 8010 Graz","Leonhardstraße 59","8010 Graz","Austria | Österreich","Maria Fellner","T +43 / 316 / 876 1637","E sales.digital@joanneum.at","www.joanneum.at/digital",72,"Leonhardstraße 59, 8010 Graz , Österreich",15.4549304,47.0739965,"leonhardstraße 59, 8010 graz, austria","Kommunikationstechnik"
"Raytech VertriebsgmbH","2018","27",NA,"Johann Steinböck-Straße 12
2345 Brunn am Gebirge, Niederösterreich","x","elektrische Systeme und Verkabelungsmaterial: Kabelbäume, Battle Panels, Verbindungsstecker, Leitungen in Komposit und Aluguss","Johann Steinböck-Straße 12, 2345 Brunn am Gebirge","Johann Steinböck-Straße 12","2345 Brunn am Gebirge","Austria | Österreich",NA,"T +43 / 2236 / 90 300","E sales@raytech-group.com","raytech-group.com",96,"Johann Steinböck-Straße 12, 2345 Brunn am Gebirge , Österreich",16.308713,48.1078929,"johann steinböck-straße 12, 2345 brunn am gebirge, austria","Andere"
"Rohde & Schwarz Österreich GesmbH","2017","36","2016/17: 55,55 Mio. EUR","Technologiestraße 10/Gebäude E
1120 Wien","x","Cybersecurity und Defense, Hard- und Software-Lösungen, Messtechnik","Technologiestraße 10 I Gebäude E, 1120 Wien","Technologiestraße 10 I Gebäude E","1120 Wien","Austria | Österreich","Günther Topil","T +43 / 1 / 602 61 41 - 0","E rs-austria@rohde-schwarz.com","www.rohde-schwarz.com",102,"Technologiestraße 10 I Gebäude E, 1120 Wien , Österreich",16.3337591,48.1687415,"gebäude e, technologiestraße 10, 1120 wien, austria","IT"
"Rosenbauer International AG","2016 (Gruppe)","3312","2016 (Gruppe): 870,81 Mio. EUR","Paschinger Str. 90
4060 Leonding, Oberösterreich","x","Fahrzeuge, Löschtechnik, Ausrüstung und Telematiklösungen für Feuerwehren sowie vorbeugende Brandschutz","Paschinger Straße 90, 4060 Leonding","Paschinger Straße 90","4060 Leonding","Austria | Österreich",NA,"T +43 / 732 / 67 94 - 0","E office@rosenbauer.com","www.rosenbauer.com",104,"Paschinger Straße 90, 4060 Leonding , Österreich",14.2434823,48.2713893,"paschinger str. 90, 4060 leonding, austria","Andere"
"RUAG Ammotec Austria GmbH","2018","17",NA,"Walter Business Park,Str. 7,Obj. 58D/1
2355 Wiener Neudorf, IZ NÖ-Süd, Niederösterreich","x","kleinkalibrige Standard- und Spezialmunition","IZ NÖ-Süd, Straße 7, Objekt 58D, 2355 Wiener Neudorf","IZ NÖ-Süd, Straße 7, Objekt 58D","2355 Wiener Neudorf","Austria | Österreich","Georg Coester","T +43 / 2236 / 677 735 - 0","E info.at.ammotec@ruag.com","www.ruag-ammotec.com",105,"IZ NÖ-Süd, Straße 7, Objekt 58D, 2355 Wiener Neudorf , Österreich",16.333152,48.067192,"iz nö-süd straße 14 7, 2355 wiener neudorf, austria","Andere"
"SAIL LABS Technology","2017","22",NA,"Mariannengasse 14
1090 Wien","x","Sprach- und Multimediaverarbeitung: Datengewinnung, Visual Analytics, Reporting Tools, Sprach- und Sprechererkennung, Polaritätsanalyse, Eigennamen- und Themenerkennung, Texterkennung, Ontologien, Social Media Analytics","Mariannengasse 14, 1090 Wien","Mariannengasse 14","1090 Wien","Austria | Österreich",NA,"T +43 / 1 / 580 95 - 0","E info4speech@sail-labs.com","www.sail-labs.com",108,"Mariannengasse 14, 1090 Wien , Österreich",16.3483915,48.2162468,"mariannengasse 14, 1090 wien, austria","Andere"
"Sattler group",NA,"n.v.",NA,NA,"?","militärische Schutztextilien: Markisen, Planen und technische Textilien","Sattlerstraße 45, 8077 Gössendorf","Sattlerstraße 45","8077 Gössendorf","Austria | Österreich","Erwin Kollegger","T +43 / 316 / 4104 - 0","E mail@sattler-global.com","www.sattler.com",109,"Sattlerstraße 45, 8077 Gössendorf , Österreich",15.4691376,47.0095082,"sattlerstraße 45, 8041 thondorf, austria","Andere"
"Schiebel Elektronische Geräte GmbH","2016","225","2016: 43,99 Mio. EUR","Margaretenstrasse 112
1050 Wien","x","Minensuchgeräte, unbemannte Helikopter, Composites Technologie","Margaretenstraße 112, 1050 Wien","Margaretenstraße 112","1050 Wien","Austria | Österreich",NA,"T +43 / 1 / 546 26 0","E info@schiebel.net","www.schiebel.net",114,"Margaretenstraße 112, 1050 Wien , Österreich",16.3540467,48.1888586,"margaretenstraße 112, 1050 wien, austria","Andere"
"SIMGUN GmbH",NA,"n.v.",NA,"Ringstraße 32/2
6840 Götzis, Vorarlberg","x","Duellsimulatoren","Ringstrasse 32/2, 6840 Götzis","Ringstrasse 32/2","6840 Götzis","Austria | Österreich","Patrick Riedesser","T +43 / 5523 / 510 07","E office@simgun.com","www.simgun.com",120,"Ringstrasse 32/2, 6840 Götzis , Österreich",9.6411335,47.333621,"ringstraße 32, 6840 götzis, austria","Andere"
"Spintower KG",NA,"n.v.",NA,"Teslastraße 4a
8074 Raaba-Grambach, Steiermark","x","hochverschlüsselte Videokommunikationssystem, live Lageüberblick, bidirektionale Kommunikation (Sprache, Video, Daten) und Lokalisierung in der Kommandozentrale","Teslastrasse 4a, 8074 Grambach","Teslastrasse 4a","8074 Grambach","Austria | Österreich","Mario Schwaiger","T +43 / 316 / 214 273 - 0","E office@spintower.eu","www.darvin.live",122,"Teslastrasse 4a, 8074 Grambach , Österreich",15.5004044,47.0186142,"teslastraße 4, 8074 grambach, austria","IT"
"SVI Austria GmbH","2017","250","2014/15: 76,62 Mio. EUR","Frauentaler Straße 100
8530 Deutschlandsberg, Steiermark","x","elektronische Baugruppen, Komplettgeräte, Kabel und Systeme","Frauentaler Straße 100, 8530 Deutschlandsberg","Frauentaler Straße 100","8530 Deutschlandsberg","Austria | Österreich","Gerold Grill","T +43 / 3462 / 68 00 - 0","E office@svi-austria.com","www.SVI-HQ.com",126,"Frauentaler Straße 100, 8530 Deutschlandsberg , Österreich",15.2332067,46.8200923,"frauentaler str. 100, 8530 deutschlandsberg, austria","Andere"
"Thales","2016","308","2016: 87,72 Mio. EUR","Handelskai 92
1200 Wien","x","Transportaktivitäten, Schutz von Eisenbahnunternehmen vor Cyber Vorfällen, Flugsicherungssystem, Nachtsichtgeräte, Kommunikations- und Radarlösungen","Handelskai 92, 1200 Wien","Handelskai 92","1200 Wien","Austria | Österreich","Christian Loew","T +43 / 664 / 850 13 44","E christian.loew@thalesgroup.com","www.thalesgroup.com/austria",130,"Handelskai 92, 1200 Wien , Österreich",16.3850288,48.24236,"handelskai 92, 1200 wien, austria","Kommunikationstechnik"
"Atlas Aerospace Elektronische Geräte Vertriebs GmbH","2016","8",NA,"Muthgasse 109
1190 Wien","x","Beratung bei Wehr- und Sicherheitstechnik, Unternehmensstrategie","Muthgasse 109, 1190 Wien ","Muthgasse 109","1190 Wien ","Austria | Österreich","Philipp Muchitsch","T +43 / 1 / 320 23 88","E atlas@atlasaero.at","www.atlasaerospace.at",22,"Muthgasse 109, 1190 Wien  , Österreich",16.3695819,48.2529738,"muthgasse 109, 1190 wien, austria","Andere"
"AVL List GmbH","2016 (Gruppe)","9115","2016 (Gruppe): 1.385,09 Mio. EU","Hans-List-Platz 1
8020 Graz, Steiermark","x","Entwicklung, Simulation und Prüftechnik von Antriebssystemen für PKW, LKW, Großmotoren und Spezialanwendungen","Hans-List-Platz 1, 8020 Graz","Hans-List-Platz 1","8020 Graz","Austria | Österreich",NA,"T +43 / 316 / 787 - 0","E info@avl.com","www.avl.com",27,"Hans-List-Platz 1, 8020 Graz , Österreich",15.425109,47.0778748,"hans-list-platz 1, 8020 graz, austria","IT"
"BDP Ballistic & Defence Products ","2015","2",NA,"Karlauergürtel 29 - 31
8020 Graz, Steiermark","x","Beratung, Vermittlung und Handel mit Defence-, Dual Use- und Sicherheitsprodukten, v.a. Instandhaltung, Feldlager, Katastrophenschutz","Karlauergürtel 29-31, 8020 Graz","Karlauergürtel 29-31","8020 Graz","Austria | Österreich","Kurt Wiederwohl","T +43 / 316 / 714 591","E k.wiederwohl@bdp.at","www.bdp.at",28,"Karlauergürtel 29-31, 8020 Graz , Österreich",15.434229,47.0577884,"karlauergürtel 29, 8020 graz, austria","Andere"
"ESL Advanced Information Technology ","2017","42","2016: 7,86 Mio. EUR","Obachgasse 26
1220 Wien","x","Führungsinformationssystemen wie fernbedienbare Waffenstationen, Granatwerfer, Beobachtungsfahrzeuge und C4I Systeme","Obachgasse 26, 1220 Wien","Obachgasse 26","1220 Wien","Austria | Österreich",NA,"T +43 / 1 / 256 24 53 - 0","E office@eslait.at","www.eslait.at",48,"Obachgasse 26, 1220 Wien , Österreich",16.4625505,48.2582287,"obachgasse 26, 1220 wien, austria","Kommunikationstechnik"
"HAST GmbH","2016","0",NA,"HAST Heeresausrüstung & Sicherheitstechnik GmbH
Furt 43
4754 Andrichsfurt, Oberösterreich","x","Plattform für Behördengeschäfte mit dem Innen- und Verteidigungsministerium","Furt 43, 4754 Andrichsfurt","Furt 43","4754 Andrichsfurt","Austria | Österreich","Gottfried Koger","T +43 / 699 / 158 880 39","E g.koger@hast.cc","www.hast.cc",63,"Furt 43, 4754 Andrichsfurt , Österreich",13.5174359,48.2543326,"furt 43, 4754 andrichsfurt, austria","Kommunikationstechnik"
"JOANNEUM RESEARCH - DIGITAL","2017","445","2016: 7,67 Mio. EUR (Rumpfjahr VII-XII)","JOANNEUM RESEARCH Forschungsgesellschaft mbH
Leonhardstraße 59
8010 Graz, Steiermark","x","Schutz kritischer Infrastrukrut (Verkehr, Energieversorgung, Industrie) vor physischen und digitalen Angriffen","Leonhardstraße 59, 8010 Graz","Leonhardstraße 59","8010 Graz","Austria | Österreich","Maria Fellner","T +43 / 316 / 876 1637","E sales.digital@joanneum.at","www.joanneum.at/digital",72,"Leonhardstraße 59, 8010 Graz , Österreich",15.4549304,47.0739965,"leonhardstraße 59, 8010 graz, austria","Andere"
"NM Robotic GmbH","2016","3",NA,"Marienhöhe 25
4391 Waldhausen im Strudengau, Oberösterreich","x","mobile Roboter, autonome Fahrzeuge und Flugzeugdrohnen, Mechatronik-Beratung","Marienhöhe 25, 4391 Waldhausen im Strudengau ","Marienhöhe 25","4391 Waldhausen im Strudengau ","Austria | Österreich","Michael Naderhirn","T +43 / 676 / 976 04 83","E m.naderhirn@nmrobotic.com","www.nmrobotic.com",85,"Marienhöhe 25, 4391 Waldhausen im Strudengau  , Österreich",14.9440947,48.2760895,"marienhöhe 25, 4391 waldhausen im strudengau, austria","IT"
"Thales","2016","308","2016: 87,72 Mio. EUR","Handelskai 92
1200 Wien","x","Transportaktivitäten, Schutz von Eisenbahnunternehmen vor Cyber Vorfällen, Flugsicherungssystem, Nachtsichtgeräte, Kommunikations- und Radarlösungen","Handelskai 92, 1200 Wien","Handelskai 92","1200 Wien","Austria | Österreich","Christian Loew","T +43 / 664 / 850 13 44","E christian.loew@thalesgroup.com","www.thalesgroup.com/austria",130,"Handelskai 92, 1200 Wien , Österreich",16.3850288,48.24236,"handelskai 92, 1200 wien, austria","Andere"
"3D Elements GmbH","2015","8",NA,"Sparkassenplatz 5
6020 Innsbruck, Tirol","x","3D-Fotostudios, 3D-Datenverarbeitung","Sparkassenplatz 5, 6020 Innsbruck","Sparkassenplatz 5","6020 Innsbruck","Austria | Österreich","Dominik Leitner","T +43 / 664 / 121 98 88","E service@3delements.com","www.3delements.com",15,"Sparkassenplatz 5, 6020 Innsbruck , Österreich",11.3943177,47.2661034,"sparkassenpl. 5, 6020 innsbruck, austria","IT"
"AIT Austrian Institute of Technology","2016 (Gruppe)","969","2016 (Gruppe): 45,87 Mio. EUR","Giefinggasse 4
1210 Wien","x","CBRN-Schutz, Sicherheitssysteme, APT-Abwehr, AI, Entwicklung von AIT Cyber Range, Safety und Security Design, Post Quantum-Verschlüsselung, Blockchain","Giefinggasse 4, 1210 Wien","Giefinggasse 4","1210 Wien","Austria | Österreich","Michael Mürling","T +43 / 50550 / 4126","E michael.muerling@ait.ac.at","www.ait.ac.at",19,"Giefinggasse 4, 1210 Wien , Österreich",16.4266624,48.2693843,"giefinggasse 4, 1210 wien, austria","IT"
"ESL Advanced Information Technology ","2017","42","2016: 7,86 Mio. EUR","Obachgasse 26
1220 Wien","x","Führungsinformationssystemen wie fernbedienbare Waffenstationen, Granatwerfer, Beobachtungsfahrzeuge und C4I Systeme","Obachgasse 26, 1220 Wien","Obachgasse 26","1220 Wien","Austria | Österreich",NA,"T +43 / 1 / 256 24 53 - 0","E office@eslait.at","www.eslait.at",48,"Obachgasse 26, 1220 Wien , Österreich",16.4625505,48.2582287,"obachgasse 26, 1220 wien, austria","Andere"
"HAST GmbH","2016","0",NA,"HAST Heeresausrüstung & Sicherheitstechnik GmbH
Furt 43
4754 Andrichsfurt, Oberösterreich","x","Plattform für Behördengeschäfte mit dem Innen- und Verteidigungsministerium","Furt 43, 4754 Andrichsfurt","Furt 43","4754 Andrichsfurt","Austria | Österreich","Gottfried Koger","T +43 / 699 / 158 880 39","E g.koger@hast.cc","www.hast.cc",63,"Furt 43, 4754 Andrichsfurt , Österreich",13.5174359,48.2543326,"furt 43, 4754 andrichsfurt, austria","Andere"
"JOANNEUM RESEARCH - DIGITAL","2017","445","2016: 7,67 Mio. EUR (Rumpfjahr VII-XII)","JOANNEUM RESEARCH Forschungsgesellschaft mbH
Leonhardstraße 59
8010 Graz, Steiermark","x","Schutz kritischer Infrastrukrut (Verkehr, Energieversorgung, Industrie) vor physischen und digitalen Angriffen","Leonhardstraße 59, 8010 Graz","Leonhardstraße 59","8010 Graz","Austria | Österreich","Maria Fellner","T +43 / 316 / 876 1637","E sales.digital@joanneum.at","www.joanneum.at/digital",72,"Leonhardstraße 59, 8010 Graz , Österreich",15.4549304,47.0739965,"leonhardstraße 59, 8010 graz, austria","IT"
"SAIL LABS Technology","2017","22",NA,"Mariannengasse 14
1090 Wien","x","Sprach- und Multimediaverarbeitung: Datengewinnung, Visual Analytics, Reporting Tools, Sprach- und Sprechererkennung, Polaritätsanalyse, Eigennamen- und Themenerkennung, Texterkennung, Ontologien, Social Media Analytics","Mariannengasse 14, 1090 Wien","Mariannengasse 14","1090 Wien","Austria | Österreich",NA,"T +43 / 1 / 580 95 - 0","E info4speech@sail-labs.com","www.sail-labs.com",108,"Mariannengasse 14, 1090 Wien , Österreich",16.3483915,48.2162468,"mariannengasse 14, 1090 wien, austria","IT"
"ESL Advanced Information Technology ","2017","42","2016: 7,86 Mio. EUR","Obachgasse 26
1220 Wien","x","Führungsinformationssystemen wie fernbedienbare Waffenstationen, Granatwerfer, Beobachtungsfahrzeuge und C4I Systeme","Obachgasse 26, 1220 Wien","Obachgasse 26","1220 Wien","Austria | Österreich",NA,"T +43 / 1 / 256 24 53 - 0","E office@eslait.at","www.eslait.at",48,"Obachgasse 26, 1220 Wien , Österreich",16.4625505,48.2582287,"obachgasse 26, 1220 wien, austria","IT"
